<?xml version="1.0" encoding="UTF-8" standalone="yes"?>
<stationlist created="1563960375" xmlns:ingv="http://webservices.ingv.it/ws/shakedata/1/">
  <station insttype="" source="Italian National Seismic Network" code="CESI" name="CESI" netid="IV" lat="43.0049" commtype="DIG" lon="12.9046">
    <comp name="--.HHZ" ingv:from="ont">
      <acc value="5.530343593378" flag="0"/>
      <vel value="0.58899" flag="0"/>
      <psa03 value="1.9734152845263" flag="0"/>
      <psa10 value="0.56095883915506" flag="0"/>
      <psa30 value="0.087293724156567" flag="0"/>
    </comp>
    <comp name="--.HHE" ingv:from="ont">
      <acc value="3.3515282996742" flag="0"/>
      <vel value="0.545795" flag="0"/>
      <psa03 value="2.2653861410369" flag="0"/>
      <psa10 value="0.54714270418543" flag="0"/>
      <psa30 value="0.047687946444504" flag="0"/>
    </comp>
    <comp name="--.HHN" ingv:from="ont">
      <acc value="3.4216749858514" flag="0"/>
      <vel value="0.641662" flag="0"/>
      <psa03 value="1.8172851075546" flag="0"/>
      <psa10 value="0.39651664941647" flag="0"/>
      <psa30 value="0.10586061499085" flag="0"/>
    </comp>
  </station>
  <station insttype="" source="Italian National Seismic Network" code="T1241" name="T1241" netid="IV" lat="42.85635" commtype="DIG" lon="13.43116">
    <comp name="--.HNZ" ingv:from="ont">
      <acc value="7.5098563729714" flag="0"/>
      <vel value="7.91179" flag="0"/>
      <psa03 value="11.797277663626" flag="0"/>
      <psa10 value="8.2854816884461" flag="0"/>
      <psa30 value="3.0861809078533" flag="0"/>
    </comp>
    <comp name="--.HNE" ingv:from="ont">
      <acc value="10.161462986851" flag="0"/>
      <vel value="9.628895" flag="0"/>
      <psa03 value="28.001300953945" flag="0"/>
      <psa10 value="9.3553281701702" flag="0"/>
      <psa30 value="2.6312329898589" flag="0"/>
    </comp>
    <comp name="--.HNN" ingv:from="ont">
      <acc value="9.0924012787241" flag="0"/>
      <vel value="10.998402" flag="0"/>
      <psa03 value="19.091276633713" flag="0"/>
      <psa10 value="5.5706019894663" flag="0"/>
      <psa30 value="2.8456487179618" flag="0"/>
    </comp>
  </station>
  <station insttype="" source="Italian National Seismic Network" code="CAMP" name="CAMP" netid="IV" lat="42.53578" commtype="DIG" lon="13.409">
    <comp name="--.HHE" ingv:from="ont">
      <acc value="3.2331427143826" flag="0"/>
      <vel value="1.977445" flag="0"/>
      <psa03 value="7.1647068060959" flag="0"/>
      <psa10 value="2.7049018778074" flag="0"/>
      <psa30 value="1.1007962963907" flag="0"/>
    </comp>
    <comp name="--.HHN" ingv:from="ont">
      <acc value="4.1995629496311" flag="0"/>
      <vel value="2.437662" flag="0"/>
      <psa03 value="5.3318446156435" flag="0"/>
      <psa10 value="3.0027423228116" flag="0"/>
      <psa30 value="1.3291666369249" flag="0"/>
    </comp>
    <comp name="--.HHZ" ingv:from="ont">
      <acc value="3.6065756399994" flag="0"/>
      <vel value="1.933253" flag="0"/>
      <psa03 value="3.2402657380451" flag="0"/>
      <psa10 value="1.8974102267339" flag="0"/>
      <psa30 value="1.5766861262511" flag="0"/>
    </comp>
  </station>
  <station insttype="" source="Italian National Seismic Network" code="PIO1" name="PIO1" netid="IV" lat="43.178198" commtype="DIG" lon="12.983759">
    <comp name="--.HNN" ingv:from="ont">
      <acc value="0.38018436469131" flag="0"/>
      <vel value="0.085793" flag="0"/>
      <psa03 value="0.26418950406102" flag="0"/>
      <psa10 value="0.20492329184788" flag="0"/>
      <psa30 value="0.023834234932418" flag="0"/>
    </comp>
    <comp name="--.HNZ" ingv:from="ont">
      <acc value="0.5573977861961" flag="0"/>
      <vel value="0.156986" flag="0"/>
      <psa03 value="0.76084718022974" flag="0"/>
      <psa10 value="0.14445289675883" flag="0"/>
      <psa30 value="0.029733293224496" flag="0"/>
    </comp>
  </station>
  <station insttype="" source="Italian National Seismic Network" code="LNSS" name="LNSS" netid="IV" lat="42.60286" commtype="DIG" lon="13.04032">
    <comp name="--.HHN" ingv:from="ont">
      <acc value="5.1853690098046" flag="0"/>
      <vel value="0.715717" flag="0"/>
      <psa03 value="5.5072030713852" flag="0"/>
      <psa10 value="1.2844718634804" flag="0"/>
      <psa30 value="0.45496606894301" flag="0"/>
    </comp>
  </station>
  <station insttype="" source="Italian National Seismic Network" code="RM33" name="RM33" netid="IV" lat="42.50898" commtype="DIG" lon="13.21452">
    <comp name="--.HNE" ingv:from="ont">
      <acc value="13.226836177492" flag="0"/>
      <vel value="13.083156" flag="0"/>
      <psa03 value="29.059371141011" flag="0"/>
      <psa10 value="14.618270459331" flag="0"/>
      <psa30 value="2.0909071905289" flag="0"/>
    </comp>
    <comp name="--.HNN" ingv:from="ont">
      <acc value="12.269862695212" flag="0"/>
      <vel value="11.33158" flag="0"/>
      <psa03 value="31.215777966992" flag="0"/>
      <psa10 value="10.300853910357" flag="0"/>
      <psa30 value="4.1493328506677" flag="0"/>
    </comp>
    <comp name="--.HNZ" ingv:from="ont">
      <acc value="7.4191691352297" flag="0"/>
      <vel value="4.717852" flag="0"/>
      <psa03 value="8.6747173601587" flag="0"/>
      <psa10 value="3.0603175396287" flag="0"/>
      <psa30 value="3.1585987059801" flag="0"/>
    </comp>
  </station>
  <station insttype="" source="Italian National Seismic Network" code="CESX" name="CESX" netid="IV" lat="42.608486" commtype="DIG" lon="12.58676">
    <comp name="--.HHE" ingv:from="ont">
      <acc value="3.2220665568772" flag="0"/>
      <vel value="1.907535" flag="0"/>
      <psa03 value="3.1445530328909" flag="0"/>
      <psa10 value="1.5780339871414" flag="0"/>
      <psa30 value="1.3102800650579" flag="0"/>
    </comp>
    <comp name="--.HHZ" ingv:from="ont">
      <acc value="2.7078629297467" flag="0"/>
      <vel value="1.979166" flag="0"/>
      <psa03 value="2.873113244584" flag="0"/>
      <psa10 value="1.3863038856286" flag="0"/>
      <psa30 value="0.97415039794425" flag="0"/>
    </comp>
    <comp name="--.HHN" ingv:from="ont">
      <acc value="2.5040199252548" flag="0"/>
      <vel value="2.253193" flag="0"/>
      <psa03 value="2.8586482641881" flag="0"/>
      <psa10 value="1.1079823385152" flag="0"/>
      <psa30 value="0.75818184599226" flag="0"/>
    </comp>
  </station>
  <station insttype="" source="Italian National Seismic Network" code="GIGS" name="GIGS" netid="IV" lat="42.453167" commtype="DIG" lon="13.572833">
    <comp name="--.HHN" ingv:from="ont">
      <acc value="2.0645988181489" flag="0"/>
      <vel value="1.208648" flag="0"/>
      <psa03 value="1.750087236722" flag="0"/>
      <psa10 value="1.1792910932887" flag="0"/>
      <psa30 value="0.71280100747962" flag="0"/>
    </comp>
    <comp name="--.HHE" ingv:from="ont">
      <acc value="2.6241778792962" flag="0"/>
      <vel value="1.245786" flag="0"/>
      <psa03 value="2.6914552879934" flag="0"/>
      <psa10 value="1.0050781867406" flag="0"/>
      <psa30 value="0.93791651583364" flag="0"/>
    </comp>
    <comp name="--.HHZ" ingv:from="ont">
      <acc value="2.3864956942483" flag="0"/>
      <vel value="1.511052" flag="0"/>
      <psa03 value="1.6542957075046" flag="0"/>
      <psa10 value="0.84839746498549" flag="0"/>
      <psa30 value="1.0176236533373" flag="0"/>
    </comp>
  </station>
  <station insttype="" source="Italian National Seismic Network" code="TRTR" name="TRTR" netid="IV" lat="42.8081" commtype="DIG" lon="13.9138">
    <comp name="--.HHN" ingv:from="ont">
      <acc value="4.2907599435077" flag="0"/>
      <vel value="0.735106" flag="0"/>
      <psa03 value="4.6943388415004" flag="0"/>
      <psa10 value="2.0742210642778" flag="0"/>
      <psa30 value="0.41459264886582" flag="0"/>
    </comp>
    <comp name="--.HHZ" ingv:from="ont">
      <acc value="3.7458542927503" flag="0"/>
      <vel value="0.79079" flag="0"/>
      <psa03 value="4.2062627910652" flag="0"/>
      <psa10 value="1.5602803199869" flag="0"/>
      <psa30 value="0.51507956335752" flag="0"/>
    </comp>
    <comp name="--.HHE" ingv:from="ont">
      <acc value="4.2046327746988" flag="0"/>
      <vel value="0.721356" flag="0"/>
      <psa03 value="3.6961982940148" flag="0"/>
      <psa10 value="1.3999582936069" flag="0"/>
      <psa30 value="0.61282415503765" flag="0"/>
    </comp>
  </station>
  <station insttype="" source="Italian National Seismic Network" code="MNTP" name="MNTP" netid="IV" lat="43.137378" commtype="DIG" lon="13.469252">
    <comp name="--.HNE" ingv:from="ont">
      <acc value="9.6473914129698" flag="0"/>
      <vel value="9.065288" flag="0"/>
      <psa03 value="14.305821151973" flag="0"/>
      <psa10 value="6.9074146624994" flag="0"/>
      <psa30 value="2.5547060413087" flag="0"/>
    </comp>
    <comp name="--.HNN" ingv:from="ont">
      <acc value="7.2668698281268" flag="0"/>
      <vel value="10.150723" flag="0"/>
      <psa03 value="10.999922297625" flag="0"/>
      <psa10 value="6.2679312507329" flag="0"/>
      <psa30 value="3.9056722734063" flag="0"/>
    </comp>
    <comp name="--.HNZ" ingv:from="ont">
      <acc value="4.2602893954612" flag="0"/>
      <vel value="5.415014" flag="0"/>
      <psa03 value="4.9338711996451" flag="0"/>
      <psa10 value="8.348196988778" flag="0"/>
      <psa30 value="2.1881245889269" flag="0"/>
    </comp>
  </station>
  <station insttype="" source="Italian National Seismic Network" code="MMUR" name="MMUR" netid="IV" lat="43.44183" commtype="DIG" lon="12.9973">
    <comp name="--.HNZ" ingv:from="ont">
      <acc value="2.8328455690781" flag="0"/>
      <vel value="1.537211" flag="0"/>
      <psa03 value="4.9687007285872" flag="0"/>
      <psa10 value="1.3793255596967" flag="0"/>
      <psa30 value="0.42472628267553" flag="0"/>
    </comp>
    <comp name="--.HNN" ingv:from="ont">
      <acc value="5.34322903336" flag="0"/>
      <vel value="2.420081" flag="0"/>
      <psa03 value="7.7253385202898" flag="0"/>
      <psa10 value="1.8081556902714" flag="0"/>
      <psa30 value="0.62893189825272" flag="0"/>
    </comp>
    <comp name="--.HNE" ingv:from="ont">
      <acc value="5.1388974828305" flag="0"/>
      <vel value="2.570004" flag="0"/>
      <psa03 value="12.394556958798" flag="0"/>
      <psa10 value="1.6057886230262" flag="0"/>
      <psa30 value="0.45168431625479" flag="0"/>
    </comp>
  </station>
  <station insttype="" source="Italian National Seismic Network" code="FAGN" name="FAGN" netid="IV" lat="42.26573" commtype="DIG" lon="13.58379">
    <comp name="--.HHZ" ingv:from="ont">
      <acc value="4.0103597048941" flag="0"/>
      <vel value="0.689356" flag="0"/>
      <psa03 value="4.2474439283547" flag="0"/>
      <psa10 value="0.86574467325743" flag="0"/>
      <psa30 value="0.52428647907287" flag="0"/>
    </comp>
    <comp name="--.HHE" ingv:from="ont">
      <acc value="5.2111476396119" flag="0"/>
      <vel value="0.791258" flag="0"/>
      <psa03 value="4.6293413143122" flag="0"/>
      <psa10 value="1.3807750862935" flag="0"/>
      <psa30 value="0.31853884863842" flag="0"/>
    </comp>
    <comp name="--.HHN" ingv:from="ont">
      <acc value="3.8648626187332" flag="0"/>
      <vel value="0.783621" flag="0"/>
      <psa03 value="4.4683698306761" flag="0"/>
      <psa10 value="0.73555464914114" flag="0"/>
      <psa30 value="0.305649737678" flag="0"/>
    </comp>
  </station>
  <station insttype="" source="Italian National Seismic Network" code="MURB" name="MURB" netid="IV" lat="43.263" commtype="DIG" lon="12.5246">
    <comp name="--.HHE" ingv:from="ont">
      <acc value="4.9506781622674" flag="0"/>
      <vel value="0.766628" flag="0"/>
      <psa03 value="6.3280419919137" flag="0"/>
      <psa10 value="0.94448022515334" flag="0"/>
      <psa30 value="0.3485123870027" flag="0"/>
    </comp>
    <comp name="--.HHN" ingv:from="ont">
      <acc value="3.8681702722132" flag="0"/>
      <vel value="0.877191" flag="0"/>
      <psa03 value="5.3292843121759" flag="0"/>
      <psa10 value="1.4535751760285" flag="0"/>
      <psa30 value="0.37568537675965" flag="0"/>
    </comp>
    <comp name="--.HNE" ingv:from="ont">
      <acc value="6.2414522798305" flag="0"/>
      <vel value="3.314239" flag="0"/>
      <psa03 value="27.449940907445" flag="0"/>
      <psa10 value="3.2343589299098" flag="0"/>
      <psa30 value="0.94201485726522" flag="0"/>
    </comp>
    <comp name="--.HHZ" ingv:from="ont">
      <acc value="3.8339840822299" flag="0"/>
      <vel value="0.761357" flag="0"/>
      <psa03 value="2.7970923811903" flag="0"/>
      <psa10 value="0.89389291960048" flag="0"/>
      <psa30 value="0.40403511902638" flag="0"/>
    </comp>
    <comp name="--.HNN" ingv:from="ont">
      <acc value="5.6003772949988" flag="0"/>
      <vel value="2.938104" flag="0"/>
      <psa03 value="23.1266669046" flag="0"/>
      <psa10 value="2.67453819602" flag="0"/>
      <psa30 value="0.94317284699668" flag="0"/>
    </comp>
    <comp name="--.HNZ" ingv:from="ont">
      <acc value="2.6436205024142" flag="0"/>
      <vel value="1.821894" flag="0"/>
      <psa03 value="3.8916558661724" flag="0"/>
      <psa10 value="1.4471505560003" flag="0"/>
      <psa30 value="1.0019675424329" flag="0"/>
    </comp>
  </station>
  <station insttype="" source="Italian National Seismic Network" code="ARVD" name="ARVD" netid="IV" lat="43.49807" commtype="DIG" lon="12.94153">
    <comp name="--.HHE" ingv:from="ont">
      <acc value="2.7682124884645" flag="0"/>
      <vel value="0.654783" flag="0"/>
      <psa03 value="1.8814053728847" flag="0"/>
      <psa10 value="0.7258881473286" flag="0"/>
      <psa30 value="0.24281380491809" flag="0"/>
    </comp>
    <comp name="--.HHZ" ingv:from="ont">
      <acc value="3.1690529385672" flag="0"/>
      <vel value="0.656567" flag="0"/>
      <psa03 value="2.9500144289844" flag="0"/>
      <psa10 value="0.75753442816864" flag="0"/>
      <psa30 value="0.31159876206452" flag="0"/>
    </comp>
    <comp name="--.HHN" ingv:from="ont">
      <acc value="1.7950076733645" flag="0"/>
      <vel value="0.643995" flag="0"/>
      <psa03 value="2.041242932092" flag="0"/>
      <psa10 value="0.97109532817017" flag="0"/>
      <psa30 value="0.29411144478492" flag="0"/>
    </comp>
  </station>
  <station insttype="" source="Italian National Seismic Network" code="PP3" name="PP3" netid="IV" lat="43.37783" commtype="DIG" lon="13.6095">
    <comp name="--.HNE" ingv:from="ont">
      <acc value="5.1780563189264" flag="0"/>
      <vel value="7.496" flag="0"/>
      <psa03 value="13.380412475208" flag="0"/>
      <psa10 value="6.3450050730882" flag="0"/>
      <psa30 value="2.5930177991465" flag="0"/>
    </comp>
    <comp name="--.HNZ" ingv:from="ont">
      <acc value="2.1850375000637" flag="0"/>
      <vel value="3.027149" flag="0"/>
      <psa03 value="3.6956918009718" flag="0"/>
      <psa10 value="2.1667723432569" flag="0"/>
      <psa30 value="0.954408692061" flag="0"/>
    </comp>
    <comp name="--.HNN" ingv:from="ont">
      <acc value="5.4133223883793" flag="0"/>
      <vel value="5.096002" flag="0"/>
      <psa03 value="13.748804739641" flag="0"/>
      <psa10 value="6.4979386436755" flag="0"/>
      <psa30 value="1.7671827790326" flag="0"/>
    </comp>
  </station>
  <station insttype="" source="Italian National Seismic Network" code="CAFI" name="CAFI" netid="IV" lat="43.3292" commtype="DIG" lon="11.9663">
    <comp name="--.HNE" ingv:from="ont">
      <acc value="0.20269409023469" flag="0"/>
      <vel value="0.199263" flag="0"/>
      <psa03 value="0.28447512657227" flag="0"/>
      <psa10 value="0.24500874406653" flag="0"/>
      <psa30 value="0.034402675735343" flag="0"/>
    </comp>
  </station>
  <station insttype="" source="Italian National Seismic Network" code="AOI" name="AOI" netid="IV" lat="43.55017" commtype="DIG" lon="13.602">
    <comp name="--.HHZ" ingv:from="ont">
      <acc value="2.05676719369" flag="0"/>
      <vel value="0.722952" flag="0"/>
      <psa03 value="2.2253609540465" flag="0"/>
      <psa10 value="0.45567354805158" flag="0"/>
      <psa30 value="0.21382674001825" flag="0"/>
    </comp>
    <comp name="--.HHN" ingv:from="ont">
      <acc value="2.7694188127444" flag="0"/>
      <vel value="0.754013" flag="0"/>
      <psa03 value="2.5810942574681" flag="0"/>
      <psa10 value="0.98587784819485" flag="0"/>
      <psa30 value="0.26947459122126" flag="0"/>
    </comp>
    <comp name="--.HHE" ingv:from="ont">
      <acc value="2.3387430977959" flag="0"/>
      <vel value="0.7679" flag="0"/>
      <psa03 value="2.8776921782668" flag="0"/>
      <psa10 value="0.87305328527071" flag="0"/>
      <psa30 value="0.38026512621537" flag="0"/>
    </comp>
  </station>
  <station insttype="" source="Italian National Seismic Network" code="SRES" name="SRES" netid="IV" lat="42.23696" commtype="DIG" lon="12.50993">
    <comp name="--.HHE" ingv:from="ont">
      <acc value="0.6641721688854" flag="0"/>
      <vel value="1.386137" flag="0"/>
      <psa03 value="1.3349323163364" flag="0"/>
      <psa10 value="0.71219917097072" flag="0"/>
      <psa30 value="0.46670341044087" flag="0"/>
    </comp>
    <comp name="--.HHZ" ingv:from="ont">
      <acc value="0.41271708483529" flag="0"/>
      <vel value="0.866746" flag="0"/>
      <psa03 value="1.0647518775525" flag="0"/>
      <psa10 value="0.7111744581483" flag="0"/>
      <psa30 value="0.4063391678096" flag="0"/>
    </comp>
    <comp name="--.HHN" ingv:from="ont">
      <acc value="0.49170491452229" flag="0"/>
      <vel value="1.507264" flag="0"/>
      <psa03 value="1.4717448873978" flag="0"/>
      <psa10 value="0.63250712526704" flag="0"/>
      <psa30 value="0.38404123732365" flag="0"/>
    </comp>
  </station>
  <station insttype="" source="Italian National Seismic Network" code="T0110" name="T0110" netid="IV" lat="42.22944" commtype="DIG" lon="13.776334">
    <comp name="--.HHE" ingv:from="ont">
      <acc value="2.645875910734" flag="0"/>
      <vel value="2.759388" flag="0"/>
      <psa03 value="6.2973949309907" flag="0"/>
      <psa10 value="2.8446004496949" flag="0"/>
      <psa30 value="0.97480056900165" flag="0"/>
    </comp>
    <comp name="--.HHN" ingv:from="ont">
      <acc value="3.9266237706046" flag="0"/>
      <vel value="2.975238" flag="0"/>
      <psa03 value="8.1533551212698" flag="0"/>
      <psa10 value="2.7168901714653" flag="0"/>
      <psa30 value="1.628991857566" flag="0"/>
    </comp>
    <comp name="--.HHZ" ingv:from="ont">
      <acc value="2.1706802016999" flag="0"/>
      <vel value="2.318114" flag="0"/>
      <psa03 value="3.3891352296656" flag="0"/>
      <psa10 value="1.1207982338515" flag="0"/>
      <psa30 value="1.531671059944" flag="0"/>
    </comp>
  </station>
  <station insttype="" source="Italian National Seismic Network" code="ATMI" name="ATMI" netid="IV" lat="43.33419" commtype="DIG" lon="12.26801">
    <comp name="--.HHE" ingv:from="ont">
      <acc value="4.4121084162278" flag="0"/>
      <vel value="0.673745" flag="0"/>
      <psa03 value="4.6720715025009" flag="0"/>
      <psa10 value="1.1217135311243" flag="0"/>
      <psa30 value="0.30828254296829" flag="0"/>
    </comp>
    <comp name="--.HHZ" ingv:from="ont">
      <acc value="4.930414667598" flag="0"/>
      <vel value="0.748902" flag="0"/>
      <psa03 value="2.7103405342293" flag="0"/>
      <psa10 value="1.5540604589743" flag="0"/>
      <psa30 value="0.447326457047" flag="0"/>
    </comp>
    <comp name="--.HHN" ingv:from="ont">
      <acc value="3.3065533082143" flag="0"/>
      <vel value="0.838523" flag="0"/>
      <psa03 value="5.0969397296732" flag="0"/>
      <psa10 value="1.46461146263" flag="0"/>
      <psa30 value="0.22608607424554" flag="0"/>
    </comp>
  </station>
  <station insttype="" source="Italian National Seismic Network" code="MTCE" name="MTCE" netid="IV" lat="42.0228" commtype="DIG" lon="12.74222">
    <comp name="--.HHZ" ingv:from="ont">
      <acc value="1.2229358649488" flag="0"/>
      <vel value="0.518941" flag="0"/>
