{"type": "FeatureCollection", "features": [{"type": "Feature", "id": "AZ.BZN", "properties": {"code": "BZN", "name": "Buzz Northerns Place, Anza, CA, USA", "instrumentType": "UNK", "source": "AZ", "network": "AZ", "commType": "UNK", "location": "", "intensity": 1.0, "intensity_flag": "", "intensity_stddev": 0.63, "pga": 0.0015, "pgv": 0.0008, "distance": 301.505, "elev": null, "vs30": 760.0, "channels": [{"name": "HHE", "amplitudes": [{"name": "pga", "value": 0.0015, "units": "%g", "flag": "0", "ln_sigma": 0.0}, {"name": "pgv", "value": 0.0008, "units": "cm/s", "flag": "0", "ln_sigma": 0.0}, {"name": "sa(0.3)", "value": 0.0044, "units": "%g", "flag": "0", "ln_sigma": 0.0}, {"name": "sa(1.0)", "value": 0.0008, "units": "%g", "flag": "0", "ln_sigma": 0.0}, {"name": "sa(3.0)", "value": 0.0001, "units": "%g", "flag": "0", "ln_sigma": 0.0}]}, {"name": "HHN", "amplitudes": [{"name": "pga", "value": 0.0015, "units": "%g", "flag": "0", "ln_sigma": 0.0}, {"name": "pgv", "value": 0.0008, "units": "cm/s", "flag": "0", "ln_sigma": 0.0}, {"name": "sa(0.3)", "value": 0.0057, "units": "%g", "flag": "0", "ln_sigma": 0.0}, {"name": "sa(1.0)", "value": 0.0005, "units": "%g", "flag": "0", "ln_sigma": 0.0}, {"name": "sa(3.0)", "value": 0.0001, "units": "%g", "flag": "0", "ln_sigma": 0.0}]}, {"name": "HHZ", "amplitudes": [{"name": "pga", "value": 0.0013, "units": "%g", "flag": "0", "ln_sigma": 0.0}, {"name": "pgv", "value": 0.0006, "units": "cm/s", "flag": "0", "ln_sigma": 0.0}, {"name": "sa(0.3)", "value": 0.0038, "units": "%g", "flag": "0", "ln_sigma": 0.0}, {"name": "sa(1.0)", "value": 0.0005, "units": "%g", "flag": "0", "ln_sigma": 0.0}, {"name": "sa(3.0)", "value": "null", "units": "%g", "flag": "Glitch,0", "ln_sigma": "null"}]}], "station_type": "seismic", "nresp": "null", "predictions": [{"name": "sa(3.0)", "value": 0.0001, "value_rock": 0.0001, "value_soil": 0.0004, "units": "%g", "ln_tau": 0.4897, "ln_phi": 0.5818, "ln_sigma": 0.7605, "ln_sigma_rock": 0.7609, "ln_sigma_soil": 0.7609, "ln_bias": 0.5578, "ln_bias_sigma": 0.1314}, {"name": "pgv", "value": 0.0009, "value_rock": 0.0009, "value_soil": 0.0026, "units": "cm/s", "ln_tau": 0.3702, "ln_phi": 0.6731, "ln_sigma": 0.7682, "ln_sigma_rock": 0.7685, "ln_sigma_soil": 0.7513, "ln_bias": 0.0156, "ln_bias_sigma": 0.1422}, {"name": "pga", "value": 0.0009, "value_rock": 0.0009, "value_soil": 0.0017, "units": "%g", "ln_tau": 0.4188, "ln_phi": 0.7407, "ln_sigma": 0.8509, "ln_sigma_rock": 0.8514, "ln_sigma_soil": 0.836, "ln_bias": -0.0884, "ln_bias_sigma": 0.1519}, {"name": "sa(0.3)", "value": 0.0021, "value_rock": 0.0021, "value_soil": 0.0071, "units": "%g", "ln_tau": 0.402, "ln_phi": 0.7564, "ln_sigma": 0.8567, "ln_sigma_rock": 0.8584, "ln_sigma_soil": 0.8471, "ln_bias": 0.045, "ln_bias_sigma": 0.1513}, {"name": "sa(1.0)", "value": 0.0008, "value_rock": 0.0008, "value_soil": 0.0033, "units": "%g", "ln_tau": 0.4709, "ln_phi": 0.6349, "ln_sigma": 0.7904, "ln_sigma_rock": 0.7908, "ln_sigma_soil": 0.7869, "ln_bias": 0.1994, "ln_bias_sigma": 0.1377}, {"name": "mmi", "value": 1.0, "value_rock": 1.0, "value_soil": 1.0, "units": "intensity", "tau": 0.3489, "phi": 0.894, "sigma": 0.9597, "sigma_rock": 0.9599, "sigma_soil": 0.9478, "bias": 0.0456, "bias_sigma": 0.1924}], "mmi_from_pgm": [{"name": "sa(3.0)", "value": 1.0, "sigma": 0.89, "flag": "0"}, {"name": "pgv", "value": 1.0, "sigma": 0.63, "flag": "0"}, {"name": "pga", "value": 1.0, "sigma": 0.66, "flag": "0"}, {"name": "sa(0.3)", "value": 1.0, "sigma": 0.82, "flag": "0"}, {"name": "sa(1.0)", "value": 1.0, "sigma": 0.75, "flag": "0"}], "distance_stddev": 0.606, "distances": {"repi": 302.253, "rhypo": 302.256, "rjb": 301.603, "rjb_var": 0.334, "rrup": 301.505, "rrup_var": 0.367, "rx": 0.0, "ry0": 0.0}}, "geometry": {"type": "Point", "coordinates": [-116.667, 33.4915]}}, {"type": "Feature", "id": "AZ.CRY", "properties": {"code": "CRY", "name": "Cary Ranch, Anza, CA, USA", "instrumentType": "UNK", "source": "AZ", "network": "AZ", "commType": "UNK", "location": "", "intensity": 1.0, "intensity_flag": "", "intensity_stddev": 0.63, "pga": 0.0014, "pgv": 0.0006, "distance": 291.582, "elev": null, "vs30": 760.0, "channels": [{"name": "HHE", "amplitudes": [{"name": "pga", "value": 0.0008, "units": "%g", "flag": "0", "ln_sigma": 0.0}, {"name": "pgv", "value": 0.0006, "units": "cm/s", "flag": "0", "ln_sigma": 0.0}, {"name": "sa(0.3)", "value": 0.0018, "units": "%g", "flag": "0", "ln_sigma": 0.0}, {"name": "sa(1.0)", "value": 0.0006, "units": "%g", "flag": "0", "ln_sigma": 0.0}, {"name": "sa(3.0)", "value": 0.0001, "units": "%g", "flag": "0", "ln_sigma": 0.0}]}, {"name": "HHN", "amplitudes": [{"name": "pga", "value": 0.0014, "units": "%g", "flag": "0", "ln_sigma": 0.0}, {"name": "pgv", "value": 0.0006, "units": "cm/s", "flag": "0", "ln_sigma": 0.0}, {"name": "sa(0.3)", "value": 0.0035, "units": "%g", "flag": "0", "ln_sigma": 0.0}, {"name": "sa(1.0)", "value": 0.0007, "units": "%g", "flag": "0", "ln_sigma": 0.0}, {"name": "sa(3.0)", "value": 0.0001, "units": "%g", "flag": "0", "ln_sigma": 0.0}]}, {"name": "HHZ", "amplitudes": [{"name": "pga", "value": 0.0005, "units": "%g", "flag": "0", "ln_sigma": 0.0}, {"name": "pgv", "value": 0.0003, "units": "cm/s", "flag": "0", "ln_sigma": 0.0}, {"name": "sa(0.3)", "value": 0.0016, "units": "%g", "flag": "0", "ln_sigma": 0.0}, {"name": "sa(1.0)", "value": 0.0004, "units": "%g", "flag": "0", "ln_sigma": 0.0}, {"name": "sa(3.0)", "value": 0.0001, "units": "%g", "flag": "0", "ln_sigma": 0.0}]}], "station_type": "seismic", "nresp": "null", "predictions": [{"name": "sa(3.0)", "value": 0.0001, "value_rock": 0.0001, "value_soil": 0.0004, "units": "%g", "ln_tau": 0.4897, "ln_phi": 0.5818, "ln_sigma": 0.7605, "ln_sigma_rock": 0.7609, "ln_sigma_soil": 0.7609, "ln_bias": 0.5578, "ln_bias_sigma": 0.1314}, {"name": "pgv", "value": 0.001, "value_rock": 0.001, "value_soil": 0.0028, "units": "cm/s", "ln_tau": 0.3702, "ln_phi": 0.6731, "ln_sigma": 0.7682, "ln_sigma_rock": 0.7685, "ln_sigma_soil": 0.7513, "ln_bias": 0.0156, "ln_bias_sigma": 0.1422}, {"name": "pga", "value": 0.001, "value_rock": 0.001, "value_soil": 0.002, "units": "%g", "ln_tau": 0.4188, "ln_phi": 0.7407, "ln_sigma": 0.8509, "ln_sigma_rock": 0.8514, "ln_sigma_soil": 0.836, "ln_bias": -0.0884, "ln_bias_sigma": 0.1519}, {"name": "sa(0.3)", "value": 0.0024, "value_rock": 0.0024, "value_soil": 0.0078, "units": "%g", "ln_tau": 0.402, "ln_phi": 0.7564, "ln_sigma": 0.8567, "ln_sigma_rock": 0.8584, "ln_sigma_soil": 0.8471, "ln_bias": 0.045, "ln_bias_sigma": 0.1513}, {"name": "sa(1.0)", "value": 0.0008, "value_rock": 0.0008, "value_soil": 0.0035, "units": "%g", "ln_tau": 0.4709, "ln_phi": 0.6349, "ln_sigma": 0.7904, "ln_sigma_rock": 0.7908, "ln_sigma_soil": 0.7869, "ln_bias": 0.1994, "ln_bias_sigma": 0.1377}, {"name": "mmi", "value": 1.0, "value_rock": 1.0, "value_soil": 1.0, "units": "intensity", "tau": 0.3489, "phi": 0.894, "sigma": 0.9597, "sigma_rock": 0.9599, "sigma_soil": 0.9478, "bias": 0.0456, "bias_sigma": 0.1924}], "mmi_from_pgm": [{"name": "sa(3.0)", "value": 1.0, "sigma": 0.89, "flag": "0"}, {"name": "pgv", "value": 1.0, "sigma": 0.63, "flag": "0"}, {"name": "pga", "value": 1.0, "sigma": 0.66, "flag": "0"}, {"name": "sa(0.3)", "value": 1.0, "sigma": 0.82, "flag": "0"}, {"name": "sa(1.0)", "value": 1.0, "sigma": 0.75, "flag": "0"}], "distance_stddev": 0.606, "distances": {"repi": 292.33, "rhypo": 292.333, "rjb": 291.68, "rjb_var": 0.334, "rrup": 291.582, "rrup_var": 0.367, "rx": 0.0, "ry0": 0.0}}, "geometry": {"type": "Point", "coordinates": [-116.7373, 33.5654]}}, {"type": "Feature", "id": "AZ.FRD", "properties": {"code": "FRD", "name": "Ford Ranch, Anza, CA, USA", "instrumentType": "UNK", "source": "AZ", "network": "AZ", "commType": "UNK", "location": "", "intensity": 1.0, "intensity_flag": "", "intensity_stddev": 0.63, "pga": 0.0006, "pgv": 0.0005, "distance": 303.262, "elev": null, "vs30": 760.0, "channels": [{"name": "HHE", "amplitudes": [{"name": "pga", "value": 0.0006, "units": "%g", "flag": "0", "ln_sigma": 0.0}, {"name": "pgv", "value": 0.0005, "units": "cm/s", "flag": "0", "ln_sigma": 0.0}, {"name": "sa(0.3)", "value": 0.0017, "units": "%g", "flag": "0", "ln_sigma": 0.0}, {"name": "sa(1.0)", "value": 0.0008, "units": "%g", "flag": "0", "ln_sigma": 0.0}, {"name": "sa(3.0)", "value": 0.0001, "units": "%g", "flag": "0", "ln_sigma": 0.0}]}, {"name": "HHN", "amplitudes": [{"name": "pga", "value": 0.0006, "units": "%g", "flag": "0", "ln_sigma": 0.0}, {"name": "pgv", "value": 0.0003, "units": "cm/s", "flag": "0", "ln_sigma": 0.0}, {"name": "sa(0.3)", "value": 0.0027, "units": "%g", "flag": "0", "ln_sigma": 0.0}, {"name": "sa(1.0)", "value": 0.0005, "units": "%g", "flag": "0", "ln_sigma": 0.0}, {"name": "sa(3.0)", "value": 0.0001, "units": "%g", "flag": "0", "ln_sigma": 0.0}]}, {"name": "HHZ", "amplitudes": [{"name": "pga", "value": 0.0004, "units": "%g", "flag": "0", "ln_sigma": 0.0}, {"name": "pgv", "value": 0.0003, "units": "cm/s", "flag": "0", "ln_sigma": 0.0}, {"name": "sa(0.3)", "value": 0.001, "units": "%g", "flag": "0", "ln_sigma": 0.0}, {"name": "sa(1.0)", "value": 0.0005, "units": "%g", "flag": "0", "ln_sigma": 0.0}, {"name": "sa(3.0)", "value": 0.0001, "units": "%g", "flag": "0", "ln_sigma": 0.0}]}], "station_type": "seismic", "nresp": "null", "predictions": [{"name": "sa(3.0)", "value": 0.0001, "value_rock": 0.0001, "value_soil": 0.0004, "units": "%g", "ln_tau": 0.4897, "ln_phi": 0.5818, "ln_sigma": 0.7605, "ln_sigma_rock": 0.7609, "ln_sigma_soil": 0.7609, "ln_bias": 0.5578, "ln_bias_sigma": 0.1314}, {"name": "pgv", "value": 0.0009, "value_rock": 0.0009, "value_soil": 0.0026, "units": "cm/s", "ln_tau": 0.3702, "ln_phi": 0.6731, "ln_sigma": 0.7682, "ln_sigma_rock": 0.7685, "ln_sigma_soil": 0.7513, "ln_bias": 0.0156, "ln_bias_sigma": 0.1422}, {"name": "pga", "value": 0.0008, "value_rock": 0.0008, "value_soil": 0.0017, "units": "%g", "ln_tau": 0.4188, "ln_phi": 0.7407, "ln_sigma": 0.8509, "ln_sigma_rock": 0.8514, "ln_sigma_soil": 0.836, "ln_bias": -0.0884, "ln_bias_sigma": 0.1519}, {"name": "sa(0.3)", "value": 0.0021, "value_rock": 0.0021, "value_soil": 0.0069, "units": "%g", "ln_tau": 0.402, "ln_phi": 0.7564, "ln_sigma": 0.8567, "ln_sigma_rock": 0.8584, "ln_sigma_soil": 0.8471, "ln_bias": 0.045, "ln_bias_sigma": 0.1513}, {"name": "sa(1.0)", "value": 0.0008, "value_rock": 0.0008, "value_soil": 0.0032, "units": "%g", "ln_tau": 0.4709, "ln_phi": 0.6349, "ln_sigma": 0.7904, "ln_sigma_rock": 0.7908, "ln_sigma_soil": 0.7869, "ln_bias": 0.1994, "ln_bias_sigma": 0.1377}, {"name": "mmi", "value": 1.0, "value_rock": 1.0, "value_soil": 1.0, "units": "intensity", "tau": 0.3489, "phi": 0.894, "sigma": 0.9597, "sigma_rock": 0.9599, "sigma_soil": 0.9478, "bias": 0.0456, "bias_sigma": 0.1924}], "mmi_from_pgm": [{"name": "sa(3.0)", "value": 1.0, "sigma": 0.89, "flag": "0"}, {"name": "pgv", "value": 1.0, "sigma": 0.63, "flag": "0"}, {"name": "pga", "value": 1.0, "sigma": 0.66, "flag": "0"}, {"name": "sa(0.3)", "value": 1.0, "sigma": 0.82, "flag": "0"}, {"name": "sa(1.0)", "value": 1.0, "sigma": 0.75, "flag": "0"}], "distance_stddev": 0.606, "distances": {"repi": 304.011, "rhypo": 304.013, "rjb": 303.36, "rjb_var": 0.334, "rrup": 303.262, "rrup_var": 0.367, "rx": 0.0, "ry0": 0.0}}, "geometry": {"type": "Point", "coordinates": [-116.6022, 33.4947]}}, {"type": "Feature", "id": "AZ.KNW", "properties": {"code": "KNW", "name": "Keenwild Fire Station, Mountain Center, CA, USA", "instrumentType": "UNK", "source": "AZ", "network": "AZ", "commType": "UNK", "location": "", "intensity": 1.0, "intensity_flag": "", "intensity_stddev": 0.63, "pga": 0.001, "pgv": 0.0005, "distance": 276.849, "elev": null, "vs30": 760.0, "channels": [{"name": "HHE", "amplitudes": [{"name": "pga", "value": 0.001, "units": "%g", "flag": "0", "ln_sigma": 0.0}, {"name": "pgv", "value": 0.0005, "units": "cm/s", "flag": "0", "ln_sigma": 0.0}, {"name": "sa(0.3)", "value": 0.0034, "units": "%g", "flag": "0", "ln_sigma": 0.0}, {"name": "sa(1.0)", "value": 0.0006, "units": "%g", "flag": "0", "ln_sigma": 0.0}, {"name": "sa(3.0)", "value": 0.0001, "units": "%g", "flag": "0", "ln_sigma": 0.0}]}, {"name": "HHN", "amplitudes": [{"name": "pga", "value": 0.0006, "units": "%g", "flag": "0", "ln_sigma": 0.0}, {"name": "pgv", "value": 0.0005, "units": "cm/s", "flag": "0", "ln_sigma": 0.0}, {"name": "sa(0.3)", "value": 0.0017, "units": "%g", "flag": "0", "ln_sigma": 0.0}, {"name": "sa(1.0)", "value": 0.0006, "units": "%g", "flag": "0", "ln_sigma": 0.0}, {"name": "sa(3.0)", "value": 0.0001, "units": "%g", "flag": "0", "ln_sigma": 0.0}]}, {"name": "HHZ", "amplitudes": [{"name": "pga", "value": 0.0008, "units": "%g", "flag": "0", "ln_sigma": 0.0}, {"name": "pgv", "value": 0.0003, "units": "cm/s", "flag": "0", "ln_sigma": 0.0}, {"name": "sa(0.3)", "value": 0.0018, "units": "%g", "flag": "0", "ln_sigma": 0.0}, {"name": "sa(1.0)", "value": 0.0003, "units": "%g", "flag": "0", "ln_sigma": 0.0}, {"name": "sa(3.0)", "value": 0.0001, "units": "%g", "flag": "0", "ln_sigma": 0.0}]}], "station_type": "seismic", "nresp": "null", "predictions": [{"name": "sa(3.0)", "value": 0.0001, "value_rock": 0.0001, "value_soil": 0.0005, "units": "%g", "ln_tau": 0.4897, "ln_phi": 0.5818, "ln_sigma": 0.7605, "ln_sigma_rock": 0.7609, "ln_sigma_soil": 0.7609, "ln_bias": 0.5578, "ln_bias_sigma": 0.1314}, {"name": "pgv", "value": 0.0011, "value_rock": 0.0011, "value_soil": 0.0032, "units": "cm/s", "ln_tau": 0.3702, "ln_phi": 0.6731, "ln_sigma": 0.7682, "ln_sigma_rock": 0.7685, "ln_sigma_soil": 0.7513, "ln_bias": 0.0156, "ln_bias_sigma": 0.1422}, {"name": "pga", "value": 0.0012, "value_rock": 0.0012, "value_soil": 0.0024, "units": "%g", "ln_tau": 0.4188, "ln_phi": 0.7407, "ln_sigma": 0.8509, "ln_sigma_rock": 0.8514, "ln_sigma_soil": 0.836, "ln_bias": -0.0884, "ln_bias_sigma": 0.1519}, {"name": "sa(0.3)", "value": 0.0028, "value_rock": 0.0028, "value_soil": 0.0092, "units": "%g", "ln_tau": 0.402, "ln_phi": 0.7565, "ln_sigma": 0.8567, "ln_sigma_rock": 0.8584, "ln_sigma_soil": 0.8471, "ln_bias": 0.045, "ln_bias_sigma": 0.1513}, {"name": "sa(1.0)", "value": 0.0009, "value_rock": 0.0009, "value_soil": 0.0038, "units": "%g", "ln_tau": 0.4709, "ln_phi": 0.6349, "ln_sigma": 0.7904, "ln_sigma_rock": 0.7908, "ln_sigma_soil": 0.7869, "ln_bias": 0.1994, "ln_bias_sigma": 0.1377}, {"name": "mmi", "value": 1.0, "value_rock": 1.0, "value_soil": 1.0, "units": "intensity", "tau": 0.3489, "phi": 0.894, "sigma": 0.9597, "sigma_rock": 0.9599, "sigma_soil": 0.9478, "bias": 0.0456, "bias_sigma": 0.1924}], "mmi_from_pgm": [{"name": "sa(3.0)", "value": 1.0, "sigma": 0.89, "flag": "0"}, {"name": "pgv", "value": 1.0, "sigma": 0.63, "flag": "0"}, {"name": "pga", "value": 1.0, "sigma": 0.66, "flag": "0"}, {"name": "sa(0.3)", "value": 1.0, "sigma": 0.82, "flag": "0"}, {"name": "sa(1.0)", "value": 1.0, "sigma": 0.75, "flag": "0"}], "distance_stddev": 0.606, "distances": {"repi": 277.596, "rhypo": 277.599, "rjb": 276.946, "rjb_var": 0.334, "rrup": 276.849, "rrup_var": 0.367, "rx": 0.0, "ry0": 0.0}}, "geometry": {"type": "Point", "coordinates": [-116.7119, 33.7141]}}, {"type": "Feature", "id": "AZ.LVA2", "properties": {"code": "LVA2", "name": "Lost Valley Scout Camp, CA, USA", "instrumentType": "UNK", "source": "AZ", "network": "AZ", "commType": "UNK", "location": "", "intensity": 1.0, "intensity_flag": "", "intensity_stddev": 0.63, "pga": 0.0013, "pgv": 0.001, "distance": 319.482, "elev": null, "vs30": 760.0, "channels": [{"name": "HHE", "amplitudes": [{"name": "pga", "value": 0.0013, "units": "%g", "flag": "0", "ln_sigma": 0.0}, {"name": "pgv", "value": 0.001, "units": "cm/s", "flag": "0", "ln_sigma": 0.0}, {"name": "sa(0.3)", "value": 0.0026, "units": "%g", "flag": "0", "ln_sigma": 0.0}, {"name": "sa(1.0)", "value": 0.0012, "units": "%g", "flag": "0", "ln_sigma": 0.0}, {"name": "sa(3.0)", "value": 0.0003, "units": "%g", "flag": "0", "ln_sigma": 0.0}]}, {"name": "HHN", "amplitudes": [{"name": "pga", "value": 0.0008, "units": "%g", "flag": "0", "ln_sigma": 0.0}, {"name": "pgv", "value": 0.0005, "units": "cm/s", "flag": "0", "ln_sigma": 0.0}, {"name": "sa(0.3)", "value": 0.0026, "units": "%g", "flag": "0", "ln_sigma": 0.0}, {"name": "sa(1.0)", "value": 0.0006, "units": "%g", "flag": "0", "ln_sigma": 0.0}, {"name": "sa(3.0)", "value": 0.0001, "units": "%g", "flag": "0", "ln_sigma": 0.0}]}, {"name": "HHZ", "amplitudes": [{"name": "pga", "value": 0.0005, "units": "%g", "flag": "0", "ln_sigma": 0.0}, {"name": "pgv", "value": 0.0006, "units": "cm/s", "flag": "0", "ln_sigma": 0.0}, {"name": "sa(0.3)", "value": 0.0023, "units": "%g", "flag": "0", "ln_sigma": 0.0}, {"name": "sa(1.0)", "value": 0.0009, "units": "%g", "flag": "0", "ln_sigma": 0.0}, {"name": "sa(3.0)", "value": 0.0001, "units": "%g", "flag": "0", "ln_sigma": 0.0}]}], "station_type": "seismic", "nresp": "null", "predictions": [{"name": "sa(3.0)", "value": 0.0001, "value_rock": 0.0001, "value_soil": 0.0004, "units": "%g", "ln_tau": 0.4897, "ln_phi": 0.5818, "ln_sigma": 0.7605, "ln_sigma_rock": 0.7609, "ln_sigma_soil": 0.7609, "ln_bias": 0.5578, "ln_bias_sigma": 0.1314}, {"name": "pgv", "value": 0.0008, "value_rock": 0.0008, "value_soil": 0.0023, "units": "cm/s", "ln_tau": 0.3702, "ln_phi": 0.6731, "ln_sigma": 0.7682, "ln_sigma_rock": 0.7685, "ln_sigma_soil": 0.7513, "ln_bias": 0.0156, "ln_bias_sigma": 0.1422}, {"name": "pga", "value": 0.0007, "value_rock": 0.0007, "value_soil": 0.0014, "units": "%g", "ln_tau": 0.4188, "ln_phi": 0.7407, "ln_sigma": 0.8509, "ln_sigma_rock": 0.8514, "ln_sigma_soil": 0.836, "ln_bias": -0.0884, "ln_bias_sigma": 0.1519}, {"name": "sa(0.3)", "value": 0.0018, "value_rock": 0.0018, "value_soil": 0.0059, "units": "%g", "ln_tau": 0.402, "ln_phi": 0.7564, "ln_sigma": 0.8567, "ln_sigma_rock": 0.8584, "ln_sigma_soil": 0.8471, "ln_bias": 0.045, "ln_bias_sigma": 0.1513}, {"name": "sa(1.0)", "value": 0.0007, "value_rock": 0.0007, "value_soil": 0.0029, "units": "%g", "ln_tau": 0.4709, "ln_phi": 0.6349, "ln_sigma": 0.7904, "ln_sigma_rock": 0.7908, "ln_sigma_soil": 0.7869, "ln_bias": 0.1994, "ln_bias_sigma": 0.1377}, {"name": "mmi", "value": 1.0, "value_rock": 1.0, "value_soil": 1.0, "units": "intensity", "tau": 0.3489, "phi": 0.894, "sigma": 0.9597, "sigma_rock": 0.9599, "sigma_soil": 0.9478, "bias": 0.0456, "bias_sigma": 0.1924}], "mmi_from_pgm": [{"name": "sa(3.0)", "value": 1.0, "sigma": 0.89, "flag": "0"}, {"name": "pgv", "value": 1.0, "sigma": 0.63, "flag": "0"}, {"name": "pga", "value": 1.0, "sigma": 0.66, "flag": "0"}, {"name": "sa(0.3)", "value": 1.0, "sigma": 0.82, "flag": "0"}, {"name": "sa(1.0)", "value": 1.0, "sigma": 0.75, "flag": "0"}], "distance_stddev": 0.605, "distances": {"repi": 320.231, "rhypo": 320.234, "rjb": 319.581, "rjb_var": 0.334, "rrup": 319.482, "rrup_var": 0.367, "rx": 0.0, "ry0": 0.0}}, "geometry": {"type": "Point", "coordinates": [-116.5615, 33.3516]}}, {"type": "Feature", "id": "AZ.PFO", "properties": {"code": "PFO", "name": "Pinyon Flats Observatory, CA, USA", "instrumentType": "UNK", "source": "AZ", "network": "AZ", "commType": "UNK", "location": "", "intensity": 1.0, "intensity_flag": "", "intensity_stddev": 0.63, "pga": 0.0009, "pgv": 0.0005, "distance": 296.299, "elev": null, "vs30": 760.0, "channels": [{"name": "HHE", "amplitudes": [{"name": "pga", "value": 0.0009, "units": "%g", "flag": "0", "ln_sigma": 0.0}, {"name": "pgv", "value": 0.0005, "units": "cm/s", "flag": "0", "ln_sigma": 0.0}, {"name": "sa(0.3)", "value": 0.0024, "units": "%g", "flag": "0", "ln_sigma": 0.0}, {"name": "sa(1.0)", "value": 0.0008, "units": "%g", "flag": "0", "ln_sigma": 0.0}, {"name": "sa(3.0)", "value": 0.0002, "units": "%g", "flag": "0", "ln_sigma": 0.0}]}, {"name": "HHN", "amplitudes": [{"name": "pga", "value": 0.0006, "units": "%g", "flag": "0", "ln_sigma": 0.0}, {"name": "pgv", "value": 0.0003, "units": "cm/s", "flag": "0", "ln_sigma": 0.0}, {"name": "sa(0.3)", "value": 0.0019, "units": "%g", "flag": "0", "ln_sigma": 0.0}, {"name": "sa(1.0)", "value": 0.0003, "units": "%g", "flag": "0", "ln_sigma": 