{"type": "FeatureCollection", "features": [{"type": "Feature", "id": "GU.BLANC", "properties": {"code": "BLANC", "name": "BLANC", "refid": null, "instrumentType": "UNK", "source": "Regional Seismic Network of North Western Italy", "network": "GU", "commType": "UNK", "location": "", "intensity": 2.5, "intensity_flag": "", "intensity_stddev": 0.15, "pga": 0.4456, "pgv": 0.0925, "distance": 15.669, "elev": null, "vs30": 376.72, "channels": [{"name": "--.HHZ", "amplitudes": [{"name": "pga", "value": 0.1666, "units": "%g", "flag": "0", "ln_sigma": 0.0}, {"name": "pgv", "value": 0.0455, "units": "cm/s", "flag": "0", "ln_sigma": 0.0}, {"name": "sa(0.3)", "value": 0.2881, "units": "%g", "flag": "0", "ln_sigma": 0.0}, {"name": "sa(1.0)", "value": 0.019, "units": "%g", "flag": "0", "ln_sigma": 0.0}, {"name": "sa(3.0)", "value": 0.0015, "units": "%g", "flag": "0", "ln_sigma": 0.0}]}, {"name": "--.HHE", "amplitudes": [{"name": "pga", "value": 0.3904, "units": "%g", "flag": "0", "ln_sigma": 0.0}, {"name": "pgv", "value": 0.0925, "units": "cm/s", "flag": "0", "ln_sigma": 0.0}, {"name": "sa(0.3)", "value": 0.3548, "units": "%g", "flag": "0", "ln_sigma": 0.0}, {"name": "sa(1.0)", "value": 0.0493, "units": "%g", "flag": "0", "ln_sigma": 0.0}, {"name": "sa(3.0)", "value": 0.0027, "units": "%g", "flag": "0", "ln_sigma": 0.0}]}, {"name": "--.HHN", "amplitudes": [{"name": "pga", "value": 0.4456, "units": "%g", "flag": "0", "ln_sigma": 0.0}, {"name": "pgv", "value": 0.0669, "units": "cm/s", "flag": "0", "ln_sigma": 0.0}, {"name": "sa(0.3)", "value": 0.2317, "units": "%g", "flag": "0", "ln_sigma": 0.0}, {"name": "sa(1.0)", "value": 0.0409, "units": "%g", "flag": "0", "ln_sigma": 0.0}, {"name": "sa(3.0)", "value": 0.003, "units": "%g", "flag": "0", "ln_sigma": 0.0}]}], "station_type": "seismic", "nresp": "null", "predictions": [{"name": "sa(0.3)", "value": 1.1909, "value_rock": 1.3149, "value_soil": 1.1909, "units": "%g", "ln_tau": 0.5021, "ln_phi": 0.6819, "ln_sigma": 0.8468, "ln_sigma_rock": 0.8472, "ln_sigma_soil": 0.8472, "ln_bias": -0.1247, "ln_bias_sigma": 0.0872}, {"name": "pga", "value": 0.9282, "value_rock": 1.1109, "value_soil": 0.9282, "units": "%g", "ln_tau": 0.3962, "ln_phi": 0.6781, "ln_sigma": 0.7853, "ln_sigma_rock": 0.7849, "ln_sigma_soil": 0.7849, "ln_bias": -0.0669, "ln_bias_sigma": 0.0888}, {"name": "sa(1.0)", "value": 0.0678, "value_rock": 0.0876, "value_soil": 0.0678, "units": "%g", "ln_tau": 0.5112, "ln_phi": 0.6669, "ln_sigma": 0.8403, "ln_sigma_rock": 0.841, "ln_sigma_soil": 0.841, "ln_bias": -0.2367, "ln_bias_sigma": 0.2332}, {"name": "pgv", "value": 0.2632, "value_rock": 0.305, "value_soil": 0.2632, "units": "cm/s", "ln_tau": 0.4468, "ln_phi": 0.6345, "ln_sigma": 0.776, "ln_sigma_rock": 0.775, "ln_sigma_soil": 0.775, "ln_bias": -0.1332, "ln_bias_sigma": 0.0829}, {"name": "sa(3.0)", "value": 0.0046, "value_rock": 0.0059, "value_soil": 0.0046, "units": "%g", "ln_tau": 0.4642, "ln_phi": 0.722, "ln_sigma": 0.8584, "ln_sigma_rock": 0.8575, "ln_sigma_soil": 0.8575, "ln_bias": -0.0114, "ln_bias_sigma": 0.3608}, {"name": "mmi", "value": 3.3514, "value_rock": 3.4381, "value_soil": 3.3514, "units": "intensity", "tau": 0.2556, "phi": 0.3929, "sigma": 0.4687, "sigma_rock": 0.4919, "sigma_soil": 0.4681, "bias": -0.0287, "bias_sigma": 0.0493}], "mmi_from_pgm": [{"name": "sa(0.3)", "value": 2.39, "sigma": 0.14, "flag": "0"}, {"name": "pga", "value": 3.18, "sigma": 0.16, "flag": "0"}, {"name": "sa(1.0)", "value": 2.27, "sigma": 0.14, "flag": "0"}, {"name": "pgv", "value": 2.49, "sigma": 0.15, "flag": "0"}, {"name": "sa(3.0)", "value": 1.23, "sigma": 0.14, "flag": "0"}], "distances": {"repi": 12.61, "rhypo": 15.669, "rjb": 12.61, "rrup": 15.669}}, "geometry": {"type": "Point", "coordinates": [6.934, 45.8444]}}, {"type": "Feature", "id": "GU.REMY", "properties": {"code": "REMY", "name": "REMY", "refid": null, "instrumentType": "UNK", "source": "Regional Seismic Network of North Western Italy", "network": "GU", "commType": "UNK", "location": "", "intensity": 1.0, "intensity_flag": "", "intensity_stddev": 0.15, "pga": 0.0571, "pgv": 0.0183, "distance": 23.034, "elev": null, "vs30": 750.78, "channels": [{"name": "--.HHN", "amplitudes": [{"name": "pga", "value": 0.0571, "units": "%g", "flag": "0", "ln_sigma": 0.0}, {"name": "pgv", "value": 0.0182, "units": "cm/s", "flag": "0", "ln_sigma": 0.0}, {"name": "sa(0.3)", "value": 0.0547, "units": "%g", "flag": "0", "ln_sigma": 0.0}, {"name": "sa(1.0)", "value": 0.0134, "units": "%g", "flag": "0", "ln_sigma": 0.0}, {"name": "sa(3.0)", "value": 0.002, "units": "%g", "flag": "0", "ln_sigma": 0.0}]}, {"name": "--.HNN", "amplitudes": [{"name": "pga", "value": 0.0557, "units": "%g", "flag": "0", "ln_sigma": 0.0}, {"name": "pgv", "value": 0.0183, "units": "cm/s", "flag": "0", "ln_sigma": 0.0}, {"name": "sa(0.3)", "value": 0.0553, "units": "%g", "flag": "0", "ln_sigma": 0.0}, {"name": "sa(1.0)", "value": 0.0138, "units": "%g", "flag": "0", "ln_sigma": 0.0}, {"name": "sa(3.0)", "value": 0.0021, "units": "%g", "flag": "0", "ln_sigma": 0.0}]}, {"name": "--.HHE", "amplitudes": [{"name": "pga", "value": 0.0541, "units": "%g", "flag": "0", "ln_sigma": 0.0}, {"name": "pgv", "value": 0.0148, "units": "cm/s", "flag": "0", "ln_sigma": 0.0}, {"name": "sa(0.3)", "value": 0.0728, "units": "%g", "flag": "0", "ln_sigma": 0.0}, {"name": "sa(1.0)", "value": 0.0102, "units": "%g", "flag": "0", "ln_sigma": 0.0}, {"name": "sa(3.0)", "value": 0.0015, "units": "%g", "flag": "0", "ln_sigma": 0.0}]}, {"name": "--.HNE", "amplitudes": [{"name": "pga", "value": 0.0537, "units": "%g", "flag": "0", "ln_sigma": 0.0}, {"name": "pgv", "value": 0.0138, "units": "cm/s", "flag": "0", "ln_sigma": 0.0}, {"name": "sa(0.3)", "value": 0.0715, "units": "%g", "flag": "0", "ln_sigma": 0.0}, {"name": "sa(1.0)", "value": 0.0096, "units": "%g", "flag": "0", "ln_sigma": 0.0}, {"name": "sa(3.0)", "value": 0.0014, "units": "%g", "flag": "0", "ln_sigma": 0.0}]}, {"name": "--.HHZ", "amplitudes": [{"name": "pga", "value": 0.0424, "units": "%g", "flag": "0", "ln_sigma": 0.0}, {"name": "pgv", "value": 0.0124, "units": "cm/s", "flag": "0", "ln_sigma": 0.0}, {"name": "sa(0.3)", "value": 0.0629, "units": "%g", "flag": "0", "ln_sigma": 0.0}, {"name": "sa(1.0)", "value": 0.0067, "units": "%g", "flag": "0", "ln_sigma": 0.0}, {"name": "sa(3.0)", "value": 0.0011, "units": "%g", "flag": "0", "ln_sigma": 0.0}]}, {"name": "--.HNZ", "amplitudes": [{"name": "pga", "value": 0.0459, "units": "%g", "flag": "0", "ln_sigma": 0.0}, {"name": "pgv", "value": 0.013, "units": "cm/s", "flag": "0", "ln_sigma": 0.0}, {"name": "sa(0.3)", "value": 0.0646, "units": "%g", "flag": "0", "ln_sigma": 0.0}, {"name": "sa(1.0)", "value": 0.0069, "units": "%g", "flag": "0", "ln_sigma": 0.0}, {"name": "sa(3.0)", "value": 0.0011, "units": "%g", "flag": "0", "ln_sigma": 0.0}]}], "station_type": "seismic", "nresp": "null", "predictions": [{"name": "sa(0.3)", "value": 0.5364, "value_rock": 0.5922, "value_soil": 0.5364, "units": "%g", "ln_tau": 0.502, "ln_phi": 0.6819, "ln_sigma": 0.8467, "ln_sigma_rock": 0.8472, "ln_sigma_soil": 0.8472, "ln_bias": -0.1247, "ln_bias_sigma": 0.0872}, {"name": "pga", "value": 0.3533, "value_rock": 0.4228, "value_soil": 0.3533, "units": "%g", "ln_tau": 0.3961, "ln_phi": 0.678, "ln_sigma": 0.7853, "ln_sigma_rock": 0.7849, "ln_sigma_soil": 0.7849, "ln_bias": -0.0669, "ln_bias_sigma": 0.0888}, {"name": "sa(1.0)", "value": 0.0355, "value_rock": 0.0458, "value_soil": 0.0355, "units": "%g", "ln_tau": 0.5112, "ln_phi": 0.6668, "ln_sigma": 0.8402, "ln_sigma_rock": 0.8409, "ln_sigma_soil": 0.8409, "ln_bias": -0.2367, "ln_bias_sigma": 0.2332}, {"name": "pgv", "value": 0.1111, "value_rock": 0.1288, "value_soil": 0.1111, "units": "cm/s", "ln_tau": 0.4468, "ln_phi": 0.6345, "ln_sigma": 0.776, "ln_sigma_rock": 0.7749, "ln_sigma_soil": 0.7749, "ln_bias": -0.1332, "ln_bias_sigma": 0.0829}, {"name": "sa(3.0)", "value": 0.0024, "value_rock": 0.0031, "value_soil": 0.0024, "units": "%g", "ln_tau": 0.4642, "ln_phi": 0.722, "ln_sigma": 0.8583, "ln_sigma_rock": 0.8574, "ln_sigma_soil": 0.8574, "ln_bias": -0.0114, "ln_bias_sigma": 0.3608}, {"name": "mmi", "value": 2.6521, "value_rock": 2.7851, "value_soil": 2.6521, "units": "intensity", "tau": 0.4031, "phi": 0.5919, "sigma": 0.7162, "sigma_rock": 0.7152, "sigma_soil": 0.7152, "bias": -0.0453, "bias_sigma": 0.0777}], "mmi_from_pgm": [{"name": "sa(0.3)", "value": 1.0, "sigma": 0.14, "flag": "0"}, {"name": "pga", "value": 1.03, "sigma": 0.16, "flag": "0"}, {"name": "sa(1.0)", "value": 1.29, "sigma": 0.14, "flag": "0"}, {"name": "pgv", "value": 1.02, "sigma": 0.15, "flag": "0"}, {"name": "sa(3.0)", "value": 1.0, "sigma": 0.14, "flag": "0"}], "distances": {"repi": 21.073, "rhypo": 23.034, "rjb": 21.073, "rrup": 23.034}}, "geometry": {"type": "Point", "coordinates": [7.1565, 45.8378]}}, {"type": "Feature", "id": "GU.LSD", "properties": {"code": "LSD", "name": "LSD", "refid": null, "instrumentType": "UNK", "source": "Regional Seismic Network of North Western Italy", "network": "GU", "commType": "UNK", "location": "", "intensity": 1.0, "intensity_flag": "", "intensity_stddev": 0.15, "pga": 0.0467, "pgv": 0.0122, "distance": 35.27, "elev": null, "vs30": 813.81, "channels": [{"name": "--.HHE", "amplitudes": [{"name": "pga", "value": 0.0467, "units": "%g", "flag": "0", "ln_sigma": 0.0}, {"name": "pgv", "value": 0.0105, "units": "cm/s", "flag": "0", "ln_sigma": 0.0}, {"name": "sa(0.3)", "value": 0.0398, "units": "%g", "flag": "0", "ln_sigma": 0.0}, {"name": "sa(1.0)", "value": 0.0029, "units": "%g", "flag": "0", "ln_sigma": 0.0}, {"name": "sa(3.0)", "value": 0.0005, "units": "%g", "flag": "0", "ln_sigma": 0.0}]}, {"name": "--.HHN", "amplitudes": [{"name": "pga", "value": 0.033, "units": "%g", "flag": "0", "ln_sigma": 0.0}, {"name": "pgv", "value": 0.0122, "units": "cm/s", "flag": "0", "ln_sigma": 0.0}, {"name": "sa(0.3)", "value": 0.0437, "units": "%g", "flag": "0", "ln_sigma": 0.0}, {"name": "sa(1.0)", "value": 0.0027, "units": "%g", "flag": "0", "ln_sigma": 0.0}, {"name": "sa(3.0)", "value": 0.0006, "units": "%g", "flag": "0", "ln_sigma": 0.0}]}, {"name": "--.HHZ", "amplitudes": [{"name": "pga", "value": 0.0239, "units": "%g", "flag": "0", "ln_sigma": 0.0}, {"name": "pgv", "value": 0.0091, "units": "cm/s", "flag": "0", "ln_sigma": 0.0}, {"name": "sa(0.3)", "value": 0.0507, "units": "%g", "flag": "0", "ln_sigma": 0.0}, {"name": "sa(1.0)", "value": 0.003, "units": "%g", "flag": "0", "ln_sigma": 0.0}, {"name": "sa(3.0)", "value": 0.0008, "units": "%g", "flag": "0", "ln_sigma": 0.0}]}], "station_type": "seismic", "nresp": "null", "predictions": [{"name": "sa(0.3)", "value": 0.1413, "value_rock": 0.2479, "value_soil": 0.2245, "units": "%g", "ln_tau": 0.502, "ln_phi": 0.6818, "ln_sigma": 0.8467, "ln_sigma_rock": 0.8471, "ln_sigma_soil": 0.8471, "ln_bias": -0.1247, "ln_bias_sigma": 0.0872}, {"name": "pga", "value": 0.0812, "value_rock": 0.1412, "value_soil": 0.118, "units": "%g", "ln_tau": 0.3961, "ln_phi": 0.6779, "ln_sigma": 0.7852, "ln_sigma_rock": 0.7848, "ln_sigma_soil": 0.7848, "ln_bias": -0.0669, "ln_bias_sigma": 0.0888}, {"name": "sa(1.0)", "value": 0.0113, "value_rock": 0.0242, "value_soil": 0.0188, "units": "%g", "ln_tau": 0.5112, "ln_phi": 0.6668, "ln_sigma": 0.8402, "ln_sigma_rock": 0.8409, "ln_sigma_soil": 0.8409, "ln_bias": -0.2367, "ln_bias_sigma": 0.2332}, {"name": "pgv", "value": 0.0279, "value_rock": 0.0519, "value_soil": 0.0448, "units": "cm/s", "ln_tau": 0.4467, "ln_phi": 0.6344, "ln_sigma": 0.7759, "ln_sigma_rock": 0.7748, "ln_sigma_soil": 0.7748, "ln_bias": -0.1332, "ln_bias_sigma": 0.0829}, {"name": "sa(3.0)", "value": 0.0008, "value_rock": 0.0017, "value_soil": 0.0013, "units": "%g", "ln_tau": 0.4642, "ln_phi": 0.7219, "ln_sigma": 0.8583, "ln_sigma_rock": 0.8574, "ln_sigma_soil": 0.8574, "ln_bias": -0.0114, "ln_bias_sigma": 0.3608}, {"name": "mmi", "value": 1.4056, "value_rock": 1.9645, "value_soil": 1.8316, "units": "intensity", "tau": 0.4031, "phi": 0.5918, "sigma": 0.7161, "sigma_rock": 0.7151, "sigma_soil": 0.7151, "bias": -0.0453, "bias_sigma": 0.0777}], "mmi_from_pgm": [{"name": "sa(0.3)", "value": 1.0, "sigma": 0.14, "flag": "0"}, {"name": "pga", "value": 1.0, "sigma": 0.16, "flag": "0"}, {"name": "sa(1.0)", "value": 1.0, "sigma": 0.14, "flag": "0"}, {"name": "pgv", "value": 1.0, "sigma": 0.15, "flag": "0"}, {"name": "sa(3.0)", "value": 1.0, "sigma": 0.14, "flag": "0"}], "distances": {"repi": 34.022, "rhypo": 35.27, "rjb": 34.022, "rrup": 35.27}}, "geometry": {"type": "Point", "coordinates": [7.1339, 45.4596]}}, {"type": "Feature", "id": "GU.BHB", "properties": {"code": "BHB", "name": "BHB", "refid": null, "instrumentType": "UNK", "source": "Regional Seismic Network of North Western Italy", "network": "GU", "commType": "UNK", "location": "", "intensity": 1.0, "intensity_flag": "", "intensity_stddev": 0.15, "pga": 0.0079, "pgv": 0.0025, "distance": 103.307, "elev": null, "vs30": 660.48, "channels": [{"name": "--.HNE", "amplitudes": [{"name": "pga", "value": 0.006, "units": "%g", "flag": "0", "ln_sigma": 0.0}, {"name": "pgv", "value": 0.0019, "units": "cm/s", "flag": "0", "ln_sigma": 0.0}, {"name": "sa(0.3)", "value": 0.0074, "units": "%g", "flag": "0", "ln_sigma": 0.0}, {"name": "sa(1.0)", "value": 0.0012, "units": "%g", "flag": "0", "ln_sigma": 0.0}, {"name": "sa(3.0)", "value": 0.0002, "units": "%g", "flag": "0", "ln_sigma": 0.0}]}, {"name": "--.HHN", "amplitudes": [{"name": "pga", "value": 0.0033, "units": "%g", "flag": "0", "ln_sigma": 0.0}, {"name": "pgv", "value": 0.0011, "units": "cm/s", "flag": "0", "ln_sigma": 0.0}, {"name": "sa(0.3)", "value": 0.0031, "units": "%g", "flag": "0", "ln_sigma": 0.0}, {"name": "sa(1.0)", "value": 0.0007, "units": "%g", "flag": "0", "ln_sigma": 0.0}, {"name": "sa(3.0)", "value": 0.0001, "units": "%g", "flag": "0", "ln_sigma": 0.0}]}, {"name": "--.HHZ", "amplitudes": [{"name": "pga", "value": 0.0041, "units": "%g", "flag": "0", "ln_sigma": 0.0}, {"name": "pgv", "value": 0.001, "units": "cm/s", "flag": "0", "ln_sigma": 0.0}, {"name": "sa(0.3)", "value": 0.0053, "units": "%g", "flag": "0", "ln_sigma": 0.0}, {"name": "sa(1.0)", "value": 0.0004, "units": "%g", "flag": "0", "ln_sigma": 0.0}, {"name": "sa(3.0)", "value": 0.0, "units": "%g", "flag": "0", "ln_sigma": 0.0}]}, {"name": "--.HNN", "amplitudes": [{"name": "pga", "value": 0.0079, "units": "%g", "flag": "0", "ln_sigma": 0.0}, {"name": "pgv", "value": 0.0025, "units": "cm/s", "flag": "0", "ln_sigma": 0.0}, {"name": "sa(0.3)", "value": 0.008, "units": "%g", "flag": "0", "ln_sigma": 0.0}, {"name": "sa(1.0)", "value": 0.0016, "units": "%g", "flag": "0", "ln_sigma": 0.0}, {"name": "sa(3.0)", "value": 0.0001, "units": "%g", "flag": "0", "ln_sigma": 0.0}]}, {"name": "--.HNZ", "amplitudes": [{"name": "pga", "value": 0.0091, "units": "%g", "flag": "0", "ln_sigma": 0.0}, {"name": "pgv", "value": 0.0023, "units": "cm/s", "flag": "0", "ln_sigma": 0.0}, {"name": "sa(0.3)", "value": 0.0135, "units": "%g", "flag": "0", "ln_sigma": 0.0}, {"name": "sa(1.0)", "value": 0.001, "units": "%g", "flag": "0", "ln_sigma": 0.0}, {"name": "sa(3.0)", "value": 0.0001, "units": "%g", "flag": "0", "ln_sigma": 0.0}]}, {"name": "--.HHE", "amplitudes": [{"name": "pga", "value": 0.0029, "units": "%g", "flag": "0", "ln_sigma": 0.0}, {"name": "pgv", "value": 0.0013, "units": "cm/s", "flag": "0", "ln_sigma": 0.0}, {"name": "sa(0.3)", "value": 0.0056, "units": "%g", "flag": "0", "ln_sigma": 0.0}, {"name": "sa(1.0)", "value": 0.0008, "units": "%g", "flag": "0", "ln_sigma": 0.0}, {"name": "sa(3.0)", "value": 0.0002, "units": "%g", "flag": "0", "ln_sigma": 0.0}]}], "station_type": "seismic", "nresp": "null", "predictions": [{"name": "sa(0.3)", "value": 0.0216, "value_rock": 0.0239, "value_soil": 0.0216, "units": "%g", "ln_tau": 0.502, "ln_phi": 0.6818, "ln_sigma": 0.8466, "ln_sigma_rock": 0.8471, "ln_sigma_soil": 0.8471, "ln_bias": -0.1247, "ln_bias_sigma": 0.0872}, {"name": "pga", "value": 0.007, "value_rock": 0.0084, "value_soil": 0.007, "units": "%g", "ln_tau": 0.3961, "ln_phi": 0.6778, "ln_sigma": 0.7851, "ln_sigma_rock": 0.7847, "ln_sigma_soil": 0.7847, "ln_bias": -0.0669, "ln_bias_sigma": 0.0888}, {"name": "sa(1.0)", "value": 0.0041, "value_rock": 0.0052, "value_soil": 0.0041, "units": "%g", "ln_tau": 0.5112, "ln_phi": 0.6667, "ln_sigma": 0.8401, "ln_sigma_rock": 0.8408, "ln_sigma_soil": 0.8408, "ln_bias": -0.2367, "ln_bias_sigma": 0.2332}, {"name": "pgv", "value": 0.0048, "value_rock": 0.0056, "value_soil": 0.0048, "units": "cm/s", "ln_tau": 0.4467, "ln_phi": 0.6343, "ln_sigma": 0.7758, "ln_sigma_rock": 0.7747, "ln_sigma_soil": 0.7747, "ln_bias": -0.1332, "ln_bias_sigma": 0.0829}, {"name": "sa(3.0)", "value": 0.0003, "value_rock": 0.0004, "value_soil": 0.0003, "units": "%g", "ln_tau": 0.4642, "ln_phi": 0.7219, "ln_sigma": 0.8583, "ln_sigma_rock": 0.8574, "ln_sigma_soil": 0.8574, "ln_bias": -0.0114, "ln_bias_sigma": 0.3608}, {"name": "mmi", "value": 1.0, "value_rock": 1.0, "value_soil": 1.0, "units": "intensity", "tau": 0.4031, "phi": 0.5917, "sigma": 0.716, "sigma_rock": 0.7151, "sigma_soil": 0.7151, "bias": -0.0453, "bias_sigma": 0.0777}], "mmi_from_pgm": [{"name": "sa(0.3)", "value": 1.0, "sigma": 0.14, "flag": "0"}, {"name": "pga", "value": 1.0, "sigma": 0.16, "flag": "0"}, {"name": "sa(1.0)", "value": 1.0, "sigma": 0.14, "flag": "0"}, {"name": "pgv", "value": 1.0, "sigma": 0.15, "flag": "0"}, {"name": "sa(3.0)", "value": 1.0, "sigma": 0.14, "flag": "0"}], "distances": {"repi": 102.887, "rhypo": 103.307, "rjb": 102.887, "rrup": 103.307}}, "geometry": {"type": "Point", "coordinates": [7.263, 44.8355]}}, {"type": "Feature", "id": "GU.CIRO", "properties": {"code": "CIRO", "name": "CIRO", "refid": null, "instrumentType": "UNK", "source": "Regional Seismic Network of North Western Italy", "network": "GU", "commType": "UNK", "location": "", "intensity": 1.0, "intensity_flag": "", "intensity_stddev": 0.16, "pga": 0.0085, "pgv": "null", "distance": 52.305, "elev": null, "vs30": 595.21, "channels": [{"name": "--.HHE", "amplitudes": [{"name": "pga", "value": 0.0055, "units": "%g", "flag": "0", "ln_sigma": 0.0}, {"name": "pgv", "value": 0.0012, "units": "cm/s", "flag": "Outlier", "ln_sigma": 0.0}, {"name": "sa(0.3)", "value": 0.0074, "units": "%g", "flag": "Outlier", "ln_sigma": 0.0}, {"name": "sa(1.0)", "value": 0.0005, "units": "%g", "flag": "Outlier", "ln_sigma": 0.0}, {"name": "sa(3.0)", "value": 0.0001, "units": "%g", "flag": "0", "ln_sigma": 0.0}]}, {"name": "--.HHN", "amplitudes": [{"name": "pga", "value": 0.0085, "units": "%g", "flag": "0", "ln_sigma": 0.0}, {"name": "pgv", "value": 0.0016, "units": "cm/s", "flag": "Outlier", "ln_sigma": 0.0}, {"name": "sa(0.3)", "value": 0.0061, "units": "%g", "flag": "Outlier", "ln_sigma": 0.0}, {"name": "sa(1.0)", "value": 0.0007, "units": "%g", "flag": "Outlier", "ln_sigma": 0.0}, {"name": "sa(3.0)", "value": 0.0002, "units": "%g", "flag": "0", "ln_sigma": 0.0}]}, {"name": "--.HHZ", "amplitudes": [{"name": "pga", "value": 0.0051, "units": "%g", "flag": "0", "ln_sigma": 0.0}, {"name": "pgv", "value": 0.0012, "units": "cm/s", "flag": "Outlier", "ln_sigma": 0.0}, {"name": "sa(0.3)", "value": 0.0057, "units": "%g", "flag": "Outlier", "ln_sigma": 0.0}, {"name": "sa(1.0)", "value": 0.0005, "units": "%g", "flag": "Outlier", "ln_sigma": 0.0}, {"name": "sa(3.0)", "value": 0.0001, "units": "%g", "flag": "0", "ln_sigma": 0.0}]}], "station_type": "seismic", "nresp": "null", "predictions": [{"name": "sa(0.3)", "value": 0.0982, "value_rock": 0.1084, "value_soil": 0.0982, "units": "%g", "ln_tau": 0.502, "ln_phi": 0.6818, "ln_sigma": 0.8466, "ln_sigma_rock": 0.8471, "ln_sigma_soil": 0.8471, "ln_bias": -0.1247, "ln_bias_sigma": 0.0872}, {"name": "pga", "value": 0.0419, "value_rock": 0.0502, "value_soil": 0.0419, "units": "%g", "ln_tau": 0.3961, "ln_phi": 0.6779, "ln_sigma": 0.7851, "ln_sigma_rock": 0.7847, "ln_sigma_soil": 0.7847, "ln_bias": -0.0669, "ln_bias_sigma": 0.0888}, {"name": "sa(1.0)", "value": 0.0106, "value_rock": 0.0137, "value_soil": 0