<?xml version="1.0" encoding="UTF-8" standalone="yes"?>
<stationlist created="1768200391" xmlns:ingv="http://webservices.ingv.it/ingvws/shakedata/1/">
  <station insttype="" source="Regional Seismic Network of North Western Italy" code="BLANC" name="BLANC" netid="GU" lat="45.8444" commtype="DIG" lon="6.934">
    <comp name="--.HHZ" ingv:from="ont-PGM_processing-ID.py">
      <acc value="0.16662060948438" flag="0"/>
      <vel value="0.04552" flag="0"/>
      <psa03 value="0.28809960587968" flag="0"/>
      <psa10 value="0.018966109731662" flag="0"/>
      <psa30 value="0.0014750195020726" flag="0"/>
    </comp>
    <comp name="--.HHE" ingv:from="ont-PGM_processing-ID.py">
      <acc value="0.39037693809813" flag="0"/>
      <vel value="0.09246" flag="0"/>
      <psa03 value="0.35481270362458" flag="0"/>
      <psa10 value="0.049333564469008" flag="0"/>
      <psa30 value="0.0027043893684388" flag="0"/>
    </comp>
    <comp name="--.HHN" ingv:from="ont-PGM_processing-ID.py">
      <acc value="0.44555072323372" flag="0"/>
      <vel value="0.06694" flag="0"/>
      <psa03 value="0.23174111444785" flag="0"/>
      <psa10 value="0.040871449475611" flag="0"/>
      <psa30 value="0.0029694136121917" flag="0"/>
    </comp>
  </station>
  <station insttype="" source="Regional Seismic Network of North Western Italy" code="REMY" name="REMY" netid="GU" lat="45.8378" commtype="DIG" lon="7.1565">
    <comp name="--.HHN" ingv:from="ont-hew1#MOD_GMEW">
      <acc value="0.057058934498529" flag="0"/>
      <vel value="0.018161" flag="0"/>
      <psa03 value="0.054727659292419" flag="0"/>
      <psa10 value="0.013448731218102" flag="0"/>
      <psa30 value="0.0020161828963" flag="0"/>
    </comp>
    <comp name="--.HNN" ingv:from="ont-hew1#MOD_GMEW">
      <acc value="0.055737688201374" flag="0"/>
      <vel value="0.018259" flag="0"/>
      <psa03 value="0.055296558967639" flag="0"/>
      <psa10 value="0.013828677479058" flag="0"/>
      <psa30 value="0.0021323285729581" flag="0"/>
    </comp>
    <comp name="--.HHE" ingv:from="ont-hew1#MOD_GMEW">
      <acc value="0.054061784605344" flag="0"/>
      <vel value="0.014796" flag="0"/>
      <psa03 value="0.072775412602673" flag="0"/>
      <psa10 value="0.01019879367572" flag="0"/>
      <psa30 value="0.0015101997114203" flag="0"/>
    </comp>
    <comp name="--.HNE" ingv:from="ont-PGM_processing-ID.py">
      <acc value="0.053745162721215" flag="0"/>
      <vel value="0.01378" flag="0"/>
      <psa03 value="0.071498625932403" flag="0"/>
      <psa10 value="0.0096227559870088" flag="0"/>
      <psa30 value="0.0014343328251748" flag="0"/>
    </comp>
    <comp name="--.HHZ" ingv:from="ont-PGM_processing-ID.py">
      <acc value="0.042374307230298" flag="0"/>
      <vel value="0.01237" flag="0"/>
      <psa03 value="0.06293076636772" flag="0"/>
      <psa10 value="0.0066886245557861" flag="0"/>
      <psa30 value="0.0010734552574019" flag="0"/>
    </comp>
    <comp name="--.HNZ" ingv:from="ont-PGM_processing-ID.py">
      <acc value="0.045874992989451" flag="0"/>
      <vel value="0.01302" flag="0"/>
      <psa03 value="0.064643175804174" flag="0"/>
      <psa10 value="0.0068880810470446" flag="0"/>
      <psa30 value="0.0011070039208088" flag="0"/>
    </comp>
  </station>
  <station insttype="" source="Regional Seismic Network of North Western Italy" code="LSD" name="LSD" netid="GU" lat="45.4596" commtype="DIG" lon="7.1339">
    <comp name="--.HHE" ingv:from="ont-hew1#MOD_GMEW">
      <acc value="0.046662111934249" flag="0"/>
      <vel value="0.010451" flag="0"/>
      <psa03 value="0.039832970484314" flag="0"/>
      <psa10 value="0.0028999709380879" flag="0"/>
      <psa30 value="0.00049741756869063" flag="0"/>
    </comp>
    <comp name="--.HHN" ingv:from="ont-hew1#MOD_GMEW">
      <acc value="0.032999546226285" flag="0"/>
      <vel value="0.012176" flag="0"/>
      <psa03 value="0.043688619457205" flag="0"/>
      <psa10 value="0.0026834851860727" flag="0"/>
      <psa30 value="0.00059908327512453" flag="0"/>
    </comp>
    <comp name="--.HHZ" ingv:from="ont-hew1#MOD_GMEW">
      <acc value="0.023947219488816" flag="0"/>
      <vel value="0.009113" flag="0"/>
      <psa03 value="0.050699168421428" flag="0"/>
      <psa10 value="0.0029557494149378" flag="0"/>
      <psa30 value="0.00079853976638302" flag="0"/>
    </comp>
  </station>
  <station insttype="" source="Regional Seismic Network of North Western Italy" code="BHB" name="BHB" netid="GU" lat="44.8355" commtype="DIG" lon="7.263">
    <comp name="--.HNE" ingv:from="ont-PGM_processing-ID.py">
      <acc value="0.0059724778594117" flag="0"/>
      <vel value="0.00185" flag="0"/>
      <psa03 value="0.0074099718048467" flag="0"/>
      <psa10 value="0.0012244752285439" flag="0"/>
      <psa30 value="0.00015203968735501" flag="0"/>
    </comp>
    <comp name="--.HHN" ingv:from="ont-PGM_processing-ID.py">
      <acc value="0.0033110185435393" flag="0"/>
      <vel value="0.00107" flag="0"/>
      <psa03 value="0.0030502771078809" flag="0"/>
      <psa10 value="0.00065985836141802" flag="0"/>
      <psa30 value="6.4140149796312E-5" flag="0"/>
    </comp>
    <comp name="--.HHZ" ingv:from="ont-PGM_processing-ID.py">
      <acc value="0.0040696874059949" flag="0"/>
      <vel value="0.00104" flag="0"/>
      <psa03 value="0.0052537818725049" flag="0"/>
      <psa10 value="0.00037158458800916" flag="0"/>
      <psa30 value="4.0278790412628E-5" flag="0"/>
    </comp>
    <comp name="--.HNN" ingv:from="ont-PGM_processing-ID.py">
      <acc value="0.0078824063263194" flag="0"/>
      <vel value="0.00251" flag="0"/>
      <psa03 value="0.0080235350501955" flag="0"/>
      <psa10 value="0.0016030958584226" flag="0"/>
      <psa30 value="0.00012879015769911" flag="0"/>
    </comp>
    <comp name="--.HNZ" ingv:from="ont-PGM_processing-ID.py">
      <acc value="0.0091407361331341" flag="0"/>
      <vel value="0.00226" flag="0"/>
      <psa03 value="0.013476161584231" flag="0"/>
      <psa10 value="0.0010315449210485" flag="0"/>
      <psa30 value="0.00010350119561726" flag="0"/>
    </comp>
    <comp name="--.HHE" ingv:from="ont-hew1#MOD_GMEW">
      <acc value="0.0028587744030836" flag="0"/>
      <vel value="0.001252" flag="0"/>
      <psa03 value="0.0056145574686565" flag="0"/>
      <psa10 value="0.00075377422463328" flag="0"/>
      <psa30 value="0.00015499686437265" flag="0"/>
    </comp>
  </station>
  <station insttype="" source="Regional Seismic Network of North Western Italy" code="CIRO" name="CIRO" netid="GU" lat="45.6019" commtype="DIG" lon="7.5681">
    <comp name="--.HHE" ingv:from="ont-hew1#MOD_GMEW">
      <acc value="0.0054852574528509" flag="0"/>
      <vel value="0.001234" flag="0"/>
      <psa03 value="0.0073555189590737" flag="0"/>
      <psa10 value="0.00051495668755385" flag="0"/>
      <psa30 value="9.1060657818929E-5" flag="0"/>
    </comp>
    <comp name="--.HHN" ingv:from="ont-hew1#MOD_GMEW">
      <acc value="0.0084855684662958" flag="0"/>
      <vel value="0.001634" flag="0"/>
      <psa03 value="0.0060934162022709" flag="0"/>
      <psa10 value="0.00065781892899206" flag="0"/>
      <psa30 value="0.00016091121840792" flag="0"/>
    </comp>
    <comp name="--.HHZ" ingv:from="ont-hew1#MOD_GMEW">
      <acc value="0.0050594239623113" flag="0"/>
      <vel value="0.001235" flag="0"/>
      <psa03 value="0.0056648294779563" flag="0"/>
      <psa10 value="0.00054921915230991" flag="0"/>
      <psa30 value="0.00010839583343955" flag="0"/>
    </comp>
  </station>
  <station insttype="" source="Regional Seismic Network of North Western Italy" code="RSP" name="RSP" netid="GU" lat="45.1482" commtype="DIG" lon="7.2649">
    <comp name="--.HHE" ingv:from="ont-hew1#MOD_GMEW">
      <acc value="0.010470344103236" flag="0"/>
      <vel value="0.003555" flag="0"/>
      <psa03 value="0.017938643675465" flag="0"/>
      <psa10 value="0.0032702298950202" flag="0"/>
      <psa30 value="0.00017273992647846" flag="0"/>
    </comp>
    <comp name="--.HHZ" ingv:from="ont-hew1#MOD_GMEW">
      <acc value="0.0051103078013389" flag="0"/>
      <vel value="0.001728" flag="0"/>
      <psa03 value="0.0083326110343491" flag="0"/>
      <psa10 value="0.0013543870740773" flag="0"/>
      <psa30 value="0.00044194500670463" flag="0"/>
    </comp>
    <comp name="--.HHN" ingv:from="ont-hew1#MOD_GMEW">
      <acc value="0.010136489015107" flag="0"/>
      <vel value="0.0038" flag="0"/>
      <psa03 value="0.017542178011859" flag="0"/>
      <psa10 value="0.0024021454829121" flag="0"/>
      <psa30 value="0.00043174784457485" flag="0"/>
    </comp>
  </station>
  <station insttype="" source="Regional Seismic Network of North Western Italy" code="SATI" name="SATI" netid="GU" lat="45.8754" commtype="DIG" lon="7.8685">
    <comp name="--.HHN" ingv:from="ont-hew1#MOD_GMEW">
      <acc value="0.011614873580682" flag="0"/>
      <vel value="0.00167" flag="0"/>
      <psa03 value="0.0054208113881907" flag="0"/>
      <psa10 value="0.00062712547098143" flag="0"/>
      <psa30 value="0.00011747130773506" flag="0"/>
    </comp>
    <comp name="--.HNE" ingv:from="ont-hew1#MOD_GMEW">
      <acc value="0.010518372736867" flag="0"/>
      <vel value="0.001715" flag="0"/>
      <psa03 value="0.0060389633564979" flag="0"/>
      <psa10 value="0.00093497779567946" flag="0"/>
      <psa30 value="0.00032732890436591" flag="0"/>
    </comp>
    <comp name="--.HNN" ingv:from="ont-hew1#MOD_GMEW">
      <acc value="0.011366572682822" flag="0"/>
      <vel value="0.001621" flag="0"/>
      <psa03 value="0.005570913614741" flag="0"/>
      <psa10 value="0.00065170063171419" flag="0"/>
      <psa30 value="0.00013031973201858" flag="0"/>
    </comp>
    <comp name="--.HHE" ingv:from="ont-hew1#MOD_GMEW">
      <acc value="0.010236727118843" flag="0"/>
      <vel value="0.001627" flag="0"/>
      <psa03 value="0.0059244492257805" flag="0"/>
      <psa10 value="0.00093436596595168" flag="0"/>
      <psa30 value="0.00032569735842515" flag="0"/>
    </comp>
    <comp name="--.HHZ" ingv:from="ont-hew1#MOD_GMEW">
      <acc value="0.0063305002217883" flag="0"/>
      <vel value="0.000981" flag="0"/>
      <psa03 value="0.0065127235090474" flag="0"/>
      <psa10 value="0.00049364461870262" flag="0"/>
      <psa30 value="0.00019609142775566" flag="0"/>
    </comp>
    <comp name="--.HNZ" ingv:from="ont-hew1#MOD_GMEW">
      <acc value="0.0064710171159366" flag="0"/>
      <vel value="0.001015" flag="0"/>
      <psa03 value="0.0066529344883319" flag="0"/>
      <psa10 value="0.00050078263219346" flag="0"/>
      <psa30 value="0.00019609142775566" flag="0"/>
    </comp>
  </station>
  <station insttype="" source="Regional Seismic Network of North Western Italy" code="RRL" name="RRL" netid="GU" lat="44.921" commtype="DIG" lon="6.79">
    <comp name="--.HHN" ingv:from="ont-hew1#MOD_GMEW">
      <acc value="0.0024003099937287" flag="0"/>
      <vel value="0.001399" flag="0"/>
      <psa03 value="0.0055426674756415" flag="0"/>
      <psa10 value="0.0008549300729607" flag="0"/>
      <psa30 value="0.00023167952358859" flag="0"/>
    </comp>
    <comp name="--.HHZ" ingv:from="ont-hew1#MOD_GMEW">
      <acc value="0.001587494200364" flag="0"/>
      <vel value="0.000992" flag="0"/>
      <psa03 value="0.0036531333329934" flag="0"/>
      <psa10 value="0.00068402563566559" flag="0"/>
      <psa30 value="0.00035526912860151" flag="0"/>
    </comp>
    <comp name="--.HHE" ingv:from="ont-hew1#MOD_GMEW">
      <acc value="0.0023940897248296" flag="0"/>
      <vel value="0.001555" flag="0"/>
      <psa03 value="0.0067435872596656" flag="0"/>
      <psa10 value="0.0011590094476707" flag="0"/>
      <psa30 value="0.00012980987391209" flag="0"/>
    </comp>
  </station>
  <station insttype="" source="Regional Seismic Network of North Western Italy" code="PZZ" name="PZZ" netid="GU" lat="44.5065" commtype="DIG" lon="7.1157">
    <comp name="--.HHE" ingv:from="ont-hew1#MOD_GMEW">
      <acc value="0.004694977387793" flag="0"/>
      <vel value="0.002017" flag="0"/>
      <psa03 value="0.010388562862955" flag="0"/>
      <psa10 value="0.0011156715086192" flag="0"/>
      <psa30 value="0.0001016657064339" flag="0"/>
    </comp>
    <comp name="--.HHN" ingv:from="ont-hew1#MOD_GMEW">
      <acc value="0.0049149301749323" flag="0"/>
      <vel value="0.00186" flag="0"/>
      <psa03 value="0.011895397510873" flag="0"/>
      <psa10 value="0.0021347758918693" flag="0"/>
      <psa30 value="0.00010696823074138" flag="0"/>
    </comp>
    <comp name="--.HHZ" ingv:from="ont-hew1#MOD_GMEW">
      <acc value="0.0039345750077753" flag="0"/>
      <vel value="0.002107" flag="0"/>
      <psa03 value="0.0092813549989038" flag="0"/>
      <psa10 value="0.00095210902805749" flag="0"/>
      <psa30 value="0.00010084993346352" flag="0"/>
    </comp>
  </station>
  <station insttype="" source="Regional Seismic Network of North Western Italy" code="ENR" name="ENR" netid="GU" lat="44.2294" commtype="DIG" lon="7.4182">
    <comp name="--.HHE" ingv:from="ont-hew1#MOD_GMEW">
      <acc value="0.001689873708147" flag="0"/>
      <vel value="0.000734" flag="0"/>
      <psa03 value="0.0022235931740197" flag="0"/>
      <psa10 value="0.00082749970683159" flag="0"/>
      <psa30 value="9.2284317274503E-5" flag="0"/>
    </comp>
    <comp name="--.HHN" ingv:from="ont-hew1#MOD_GMEW">
      <acc value="0.0016405194434389" flag="0"/>
      <vel value="0.000761" flag="0"/>
      <psa03 value="0.003675261174815" flag="0"/>
      <psa10 value="0.00097913150770141" flag="0"/>
      <psa30 value="0.00023412684249973" flag="0"/>
    </comp>
  </station>
  <station insttype="" source="Regional Seismic Network of North Western Italy" code="STV" name="STV" netid="GU" lat="44.2451" commtype="DIG" lon="7.3263">
    <comp name="--.HHE" ingv:from="ont-hew1#MOD_GMEW">
      <acc value="0.00036607812045908" flag="0"/>
      <vel value="0.000305" flag="0"/>
      <psa03 value="0.0010329725237466" flag="0"/>
      <psa10 value="0.00034007535702814" flag="0"/>
      <psa30 value="5.404495928783E-5" flag="0"/>
    </comp>
    <comp name="--.HHN" ingv:from="ont-hew1#MOD_GMEW">
      <acc value="0.00042440588784141" flag="0"/>
      <vel value="0.000214" flag="0"/>
      <psa03 value="0.00080996058796837" flag="0"/>
      <psa10 value="0.00032243426654362" flag="0"/>
      <psa30 value="6.3222405204632E-5" flag="0"/>
    </comp>
    <comp name="--.HHZ" ingv:from="ont-hew1#MOD_GMEW">
      <acc value="0.00044041543238517" flag="0"/>
      <vel value="0.000289" flag="0"/>
      <psa03 value="0.0013107432201618" flag="0"/>
      <psa10 value="0.00033518071920585" flag="0"/>
      <psa30 value="0.00011329047126185" flag="0"/>
    </comp>
  </station>
  <station insttype="" source="Regional Seismic Network of North Western Italy" code="ROTM" name="ROTM" netid="GU" lat="44.8493" commtype="DIG" lon="8.3523">
    <comp name="--.HHE" ingv:from="ont-hew1#MOD_GMEW">
      <acc value="0.0015000025492905" flag="0"/>
      <vel value="0.001241" flag="0"/>
      <psa03 value="0.0050169017962301" flag="0"/>
      <psa10 value="0.0012020414718584" flag="0"/>
      <psa30 value="0.00027664900858091" flag="0"/>
    </comp>
    <comp name="--.HHZ" ingv:from="ont-hew1#MOD_GMEW">
      <acc value="0.0010542845925979" flag="0"/>
      <vel value="0.00065" flag="0"/>
      <psa03 value="0.0032963346300725" flag="0"/>
      <psa10 value="0.00071563683826791" flag="0"/>
      <psa30 value="0.00020027226422887" flag="0"/>
    </comp>
    <comp name="--.HHN" ingv:from="ont-hew1#MOD_GMEW">
      <acc value="0.0018601663157143" flag="0"/>
      <vel value="0.001365" flag="0"/>
      <psa03 value="0.007030331458755" flag="0"/>
      <psa10 value="0.0018529263306022" flag="0"/>
      <psa30 value="0.00027858646938557" flag="0"/>
    </comp>
  </station>
  <station insttype="" source="Regional Seismic Network of North Western Italy" code="GBOS" name="GBOS" netid="GU" lat="44.2416" commtype="DIG" lon="7.8399">
    <comp name="--.HHE" ingv:from="ont-hew1#MOD_GMEW">
      <acc value="0.0017121035215899" flag="0"/>
      <vel value="0.001141" flag="0"/>
      <psa03 value="0.0041829778772568" flag="0"/>
      <psa10 value="0.0014146523022643" flag="0"/>
      <psa30 value="0.00011920482529712" flag="0"/>
    </comp>
    <comp name="--.HHN" ingv:from="ont-hew1#MOD_GMEW">
      <acc value="0.0015029597263082" flag="0"/>
      <vel value="0.00134" flag="0"/>
      <psa03 value="0.0049960995854854" flag="0"/>
      <psa10 value="0.0024985086650385" flag="0"/>
      <psa30 value="0.00013613211443255" flag="0"/>
    </comp>
    <comp name="--.HHZ" ingv:from="ont-hew1#MOD_GMEW">
      <acc value="0.0017283170093763" flag="0"/>
      <vel value="0.00114" flag="0"/>
      <psa03 value="0.0036621068356676" flag="0"/>
      <psa10 value="0.0019622399086334" flag="0"/>
      <psa30 value="0.00015061208465684" flag="0"/>
    </comp>
  </station>
  <station insttype="" source="Regional Seismic Network of North Western Italy" code="PCP" name="PCP" netid="GU" lat="44.5413" commtype="DIG" lon="8.5455">
    <comp name="--.HHZ" ingv:from="ont-hew1#MOD_GMEW">
      <acc value="0.00026288283970571" flag="0"/>
      <vel value="0.00019" flag="0"/>
      <psa03 value="0.00089429111878164" flag="0"/>
      <psa10 value="0.00019150270479725" flag="0"/>
      <psa30 value="4.4663570128433E-5" flag="0"/>
    </comp>
    <comp name="--.HHN" ingv:from="ont-hew1#MOD_GMEW">
      <acc value="0.00026441241402518" flag="0"/>
      <vel value="0.000221" flag="0"/>
      <psa03 value="0.00081485522579066" flag="0"/>
      <psa10 value="0.00040482733655224" flag="0"/>
      <psa30 value="7.9537864612278E-5" flag="0"/>
    </comp>
  </station>
  <station insttype="" source="Regional Seismic Network of North Western Italy" code="RORO" name="RORO" netid="GU" lat="44.1125" commtype="DIG" lon="8.0667">
    <comp name="--.HHE" ingv:from="ont-hew1#MOD_GMEW">
      <acc value="0.0003928966568604" flag="0"/>
      <vel value="0.000282" flag="0"/>
      <psa03 value="0.0013403149903382" flag="0"/>
      <psa10 value="0.00051577246052424" flag="0"/>
      <psa30 value="4.3949768779349E-5" flag="0"/>
    </comp>
  </station>
  <station insttype="" source="Regional Seismic Network of North Western Italy" code="MGRO" name="MGRO" netid="GU" lat="44.0426" commtype="DIG" lon="7.8082">
    <comp name="--.HHE" ingv:from="ont-hew1#MOD_GMEW">
      <acc value="0.00052637750913921" flag="0"/>
      <vel value="0.000432" flag="0"/>
      <psa03 value="0.0012692407702936" flag="0"/>
      <psa10 value="0.00035455532725243" flag="0"/>
      <psa30 value="6.8524929512117E-5" flag="0"/>
    </comp>
    <comp name="--.HHN" ingv:from="ont-hew1#MOD_GMEW">
      <acc value="0.00033895366919386" flag="0"/>
      <vel value="0.000414" flag="0"/>
      <psa03 value="0.001027975914303" flag="0"/>
      <psa10 value="0.00068922618835178" flag="0"/>
      <psa30 value="6.5261837630587E-5" flag="0"/>
    </comp>
  </station>
  <station insttype="" source="Regional Seismic Network of North Western Italy" code="GORR" name="GORR" netid="GU" lat="44.6071" commtype="DIG" lon="9.2926">
    <comp name="--.HHZ" ingv:from="ont-hew1#MOD_GMEW">
      <acc value="0.00039401834469467" flag="0"/>
      <vel value="0.000203" flag="0"/>
      <psa03 value="0.0008178124028083" flag="0"/>
      <psa10 value="0.00019700917234734" flag="0"/>
      <psa30 value="6.699535519265E-5" flag="0"/>
    </comp>
    <comp name="--.HHE" ingv:from="ont-hew1#MOD_GMEW">
      <acc value="0.00053565692667731" flag="0"/>
      <vel value="0.000288" flag="0"/>
      <psa03 value="0.0012490503892767" flag="0"/>
      <psa10 value="0.00023351501277195" flag="0"/>
      <psa30 value="5.0577924163705E-5" flag="0"/>
    </comp>
    <comp name="--.HHN" ingv:from="ont-hew1#MOD_GMEW">
      <acc value="0.00050618712812224" flag="0"/>
      <vel value="0.00026" flag="0"/>
      <psa03 value="0.0010899746600521" flag="0"/>
      <psa10 value="0.00020853196555399" flag="0"/>
