{"type": "FeatureCollection", "features": [{"type": "Feature", "id": "IV.CESI", "properties": {"code": "CESI", "name": "CESI", "instrumentType": "UNK", "source": "IV", "network": "IV", "commType": "UNK", "location": "", "intensity": 4.7, "intensity_flag": "", "intensity_stddev": 0.26, "pga": 3.4217, "pgv": "null", "distance": 18.555, "elev": null, "vs30": 279.74, "channels": [{"name": "--.HHZ", "amplitudes": [{"name": "pga", "value": 5.5303, "units": "%g", "flag": "0", "ln_sigma": 0.0}, {"name": "pgv", "value": 0.589, "units": "cm/s", "flag": "Outlier", "ln_sigma": 0.0}, {"name": "sa(0.3)", "value": 1.9734, "units": "%g", "flag": "Outlier", "ln_sigma": 0.0}, {"name": "sa(1.0)", "value": 0.561, "units": "%g", "flag": "Outlier", "ln_sigma": 0.0}, {"name": "sa(3.0)", "value": 0.0873, "units": "%g", "flag": "Outlier", "ln_sigma": 0.0}]}, {"name": "--.HHE", "amplitudes": [{"name": "pga", "value": 3.3515, "units": "%g", "flag": "0", "ln_sigma": 0.0}, {"name": "pgv", "value": 0.5458, "units": "cm/s", "flag": "Outlier", "ln_sigma": 0.0}, {"name": "sa(0.3)", "value": 2.2654, "units": "%g", "flag": "Outlier", "ln_sigma": 0.0}, {"name": "sa(1.0)", "value": 0.5471, "units": "%g", "flag": "Outlier", "ln_sigma": 0.0}, {"name": "sa(3.0)", "value": 0.0477, "units": "%g", "flag": "Outlier", "ln_sigma": 0.0}]}, {"name": "--.HHN", "amplitudes": [{"name": "pga", "value": 3.4217, "units": "%g", "flag": "0", "ln_sigma": 0.0}, {"name": "pgv", "value": 0.6417, "units": "cm/s", "flag": "Outlier", "ln_sigma": 0.0}, {"name": "sa(0.3)", "value": 1.8173, "units": "%g", "flag": "Outlier", "ln_sigma": 0.0}, {"name": "sa(1.0)", "value": 0.3965, "units": "%g", "flag": "Outlier", "ln_sigma": 0.0}, {"name": "sa(3.0)", "value": 0.1059, "units": "%g", "flag": "Outlier", "ln_sigma": 0.0}]}], "station_type": "seismic", "predictions": [{"name": "sa(3.0)", "value": 4.098, "value_rock": 3.2298, "value_soil": 4.098, "units": "%g", "ln_tau": 0.4651, "ln_phi": 0.7226, "ln_sigma": 0.8594, "ln_sigma_rock": 0.8586, "ln_sigma_soil": 0.8586, "ln_bias": -0.3226}, {"name": "sa(1.0)", "value": 24.6435, "value_rock": 19.0854, "value_soil": 24.6435, "units": "%g", "ln_tau": 0.5112, "ln_phi": 0.6667, "ln_sigma": 0.8401, "ln_sigma_rock": 0.8408, "ln_sigma_soil": 0.8408, "ln_bias": -0.7129}, {"name": "pgv", "value": 18.5869, "value_rock": 16.0401, "value_soil": 18.5869, "units": "cm/s", "ln_tau": 0.4467, "ln_phi": 0.6343, "ln_sigma": 0.7758, "ln_sigma_rock": 0.7747, "ln_sigma_soil": 0.7747, "ln_bias": -0.4208}, {"name": "sa(0.3)", "value": 45.2569, "value_rock": 40.9907, "value_soil": 45.2569, "units": "%g", "ln_tau": 0.502, "ln_phi": 0.6817, "ln_sigma": 0.8466, "ln_sigma_rock": 0.8471, "ln_sigma_soil": 0.8471, "ln_bias": -0.4104}, {"name": "pga", "value": 19.8043, "value_rock": 16.5486, "value_soil": 19.8043, "units": "%g", "ln_tau": 0.396, "ln_phi": 0.6778, "ln_sigma": 0.785, "ln_sigma_rock": 0.7847, "ln_sigma_soil": 0.7847, "ln_bias": -0.1955}, {"name": "mmi", "value": 8.0926, "value_rock": 7.9422, "value_soil": 8.0926, "units": "intensity", "tau": 0.4559, "phi": 0.6976, "sigma": 0.8334, "sigma_rock": 0.8323, "sigma_soil": 0.8323, "bias": -0.5255}], "mmi_from_pgm": [{"name": "sa(3.0)", "value": 4.34, "sigma": 0.29}, {"name": "sa(1.0)", "value": 4.62, "sigma": 0.36}, {"name": "pgv", "value": 4.66, "sigma": 0.26}, {"name": "sa(0.3)", "value": 4.0, "sigma": 0.53}, {"name": "pga", "value": 5.62, "sigma": 0.35}], "distance_stddev": 0.0, "distances": {"repi": 25.583, "rhypo": 27.468, "rjb": 15.99, "rjb_var": 0.0, "rrup": 18.555, "rrup_var": 0.0}}, "geometry": {"type": "Point", "coordinates": [12.9046, 43.0049]}}, {"type": "Feature", "id": "IV.T1241", "properties": {"code": "T1241", "name": "T1241", "instrumentType": "UNK", "source": "IV", "network": "IV", "commType": "UNK", "location": "", "intensity": 7.6, "intensity_flag": "", "intensity_stddev": 0.26, "pga": 10.1615, "pgv": 10.9984, "distance": 14.928, "elev": null, "vs30": 573.46, "channels": [{"name": "--.HNZ", "amplitudes": [{"name": "pga", "value": 7.5099, "units": "%g", "flag": "0", "ln_sigma": 0.0}, {"name": "pgv", "value": 7.9118, "units": "cm/s", "flag": "0", "ln_sigma": 0.0}, {"name": "sa(0.3)", "value": 11.7973, "units": "%g", "flag": "0", "ln_sigma": 0.0}, {"name": "sa(1.0)", "value": 8.2855, "units": "%g", "flag": "0", "ln_sigma": 0.0}, {"name": "sa(3.0)", "value": 3.0862, "units": "%g", "flag": "0", "ln_sigma": 0.0}]}, {"name": "--.HNE", "amplitudes": [{"name": "pga", "value": 10.1615, "units": "%g", "flag": "0", "ln_sigma": 0.0}, {"name": "pgv", "value": 9.6289, "units": "cm/s", "flag": "0", "ln_sigma": 0.0}, {"name": "sa(0.3)", "value": 28.0013, "units": "%g", "flag": "0", "ln_sigma": 0.0}, {"name": "sa(1.0)", "value": 9.3553, "units": "%g", "flag": "0", "ln_sigma": 0.0}, {"name": "sa(3.0)", "value": 2.6312, "units": "%g", "flag": "0", "ln_sigma": 0.0}]}, {"name": "--.HNN", "amplitudes": [{"name": "pga", "value": 9.0924, "units": "%g", "flag": "0", "ln_sigma": 0.0}, {"name": "pgv", "value": 10.9984, "units": "cm/s", "flag": "0", "ln_sigma": 0.0}, {"name": "sa(0.3)", "value": 19.0913, "units": "%g", "flag": "0", "ln_sigma": 0.0}, {"name": "sa(1.0)", "value": 5.5706, "units": "%g", "flag": "0", "ln_sigma": 0.0}, {"name": "sa(3.0)", "value": 2.8456, "units": "%g", "flag": "0", "ln_sigma": 0.0}]}], "station_type": "seismic", "predictions": [{"name": "sa(3.0)", "value": 3.3963, "value_rock": 3.3963, "value_soil": 4.3093, "units": "%g", "ln_tau": 0.4651, "ln_phi": 0.7226, "ln_sigma": 0.8594, "ln_sigma_rock": 0.8586, "ln_sigma_soil": 0.8586, "ln_bias": -0.3226}, {"name": "sa(1.0)", "value": 20.2649, "value_rock": 20.2649, "value_soil": 26.1664, "units": "%g", "ln_tau": 0.5112, "ln_phi": 0.6667, "ln_sigma": 0.8401, "ln_sigma_rock": 0.8408, "ln_sigma_soil": 0.8408, "ln_bias": -0.7129}, {"name": "pgv", "value": 17.0232, "value_rock": 17.0232, "value_soil": 19.7261, "units": "cm/s", "ln_tau": 0.4467, "ln_phi": 0.6343, "ln_sigma": 0.7758, "ln_sigma_rock": 0.7747, "ln_sigma_soil": 0.7747, "ln_bias": -0.4208}, {"name": "sa(0.3)", "value": 43.694, "value_rock": 43.694, "value_soil": 48.2416, "units": "%g", "ln_tau": 0.502, "ln_phi": 0.6817, "ln_sigma": 0.8466, "ln_sigma_rock": 0.8471, "ln_sigma_soil": 0.8471, "ln_bias": -0.4104}, {"name": "pga", "value": 17.6808, "value_rock": 17.6808, "value_soil": 21.1594, "units": "%g", "ln_tau": 0.396, "ln_phi": 0.6778, "ln_sigma": 0.785, "ln_sigma_rock": 0.7847, "ln_sigma_soil": 0.7847, "ln_bias": -0.1955}, {"name": "mmi", "value": 8.0029, "value_rock": 8.0029, "value_soil": 8.1533, "units": "intensity", "tau": 0.4559, "phi": 0.6976, "sigma": 0.8334, "sigma_rock": 0.8323, "sigma_soil": 0.8323, "bias": -0.5255}], "mmi_from_pgm": [{"name": "sa(3.0)", "value": 7.2, "sigma": 0.29}, {"name": "sa(1.0)", "value": 7.14, "sigma": 0.36}, {"name": "pgv", "value": 7.56, "sigma": 0.26}, {"name": "sa(0.3)", "value": 6.24, "sigma": 0.53}, {"name": "pga", "value": 6.84, "sigma": 0.35}], "distance_stddev": 0.0, "distances": {"repi": 26.409, "rhypo": 28.239, "rjb": 14.928, "rjb_var": 0.0, "rrup": 14.928, "rrup_var": 0.0}}, "geometry": {"type": "Point", "coordinates": [13.43116, 42.85635]}}, {"type": "Feature", "id": "IV.CAMP", "properties": {"code": "CAMP", "name": "CAMP", "instrumentType": "UNK", "source": "IV", "network": "IV", "commType": "UNK", "location": "", "intensity": 6.0, "intensity_flag": "", "intensity_stddev": 0.26, "pga": 4.1996, "pgv": 2.4377, "distance": 24.541, "elev": null, "vs30": 526.36, "channels": [{"name": "--.HHE", "amplitudes": [{"name": "pga", "value": 3.2331, "units": "%g", "flag": "0", "ln_sigma": 0.0}, {"name": "pgv", "value": 1.9774, "units": "cm/s", "flag": "0", "ln_sigma": 0.0}, {"name": "sa(0.3)", "value": 7.1647, "units": "%g", "flag": "0", "ln_sigma": 0.0}, {"name": "sa(1.0)", "value": 2.7049, "units": "%g", "flag": "0", "ln_sigma": 0.0}, {"name": "sa(3.0)", "value": 1.1008, "units": "%g", "flag": "0", "ln_sigma": 0.0}]}, {"name": "--.HHN", "amplitudes": [{"name": "pga", "value": 4.1996, "units": "%g", "flag": "0", "ln_sigma": 0.0}, {"name": "pgv", "value": 2.4377, "units": "cm/s", "flag": "0", "ln_sigma": 0.0}, {"name": "sa(0.3)", "value": 5.3318, "units": "%g", "flag": "0", "ln_sigma": 0.0}, {"name": "sa(1.0)", "value": 3.0027, "units": "%g", "flag": "0", "ln_sigma": 0.0}, {"name": "sa(3.0)", "value": 1.3292, "units": "%g", "flag": "0", "ln_sigma": 0.0}]}, {"name": "--.HHZ", "amplitudes": [{"name": "pga", "value": 3.6066, "units": "%g", "flag": "0", "ln_sigma": 0.0}, {"name": "pgv", "value": 1.9333, "units": "cm/s", "flag": "0", "ln_sigma": 0.0}, {"name": "sa(0.3)", "value": 3.2403, "units": "%g", "flag": "0", "ln_sigma": 0.0}, {"name": "sa(1.0)", "value": 1.8974, "units": "%g", "flag": "0", "ln_sigma": 0.0}, {"name": "sa(3.0)", "value": 1.5767, "units": "%g", "flag": "0", "ln_sigma": 0.0}]}], "station_type": "seismic", "predictions": [{"name": "sa(3.0)", "value": 2.3932, "value_rock": 2.3932, "value_soil": 3.0365, "units": "%g", "ln_tau": 0.4651, "ln_phi": 0.7226, "ln_sigma": 0.8594, "ln_sigma_rock": 0.8586, "ln_sigma_soil": 0.8586, "ln_bias": -0.3226}, {"name": "sa(1.0)", "value": 13.2261, "value_rock": 13.2261, "value_soil": 17.0778, "units": "%g", "ln_tau": 0.5112, "ln_phi": 0.6667, "ln_sigma": 0.8401, "ln_sigma_rock": 0.8408, "ln_sigma_soil": 0.8408, "ln_bias": -0.7129}, {"name": "pgv", "value": 10.9961, "value_rock": 10.9961, "value_soil": 12.742, "units": "cm/s", "ln_tau": 0.4467, "ln_phi": 0.6343, "ln_sigma": 0.7758, "ln_sigma_rock": 0.7747, "ln_sigma_soil": 0.7747, "ln_bias": -0.4208}, {"name": "sa(0.3)", "value": 27.0939, "value_rock": 27.0939, "value_soil": 29.9138, "units": "%g", "ln_tau": 0.502, "ln_phi": 0.6817, "ln_sigma": 0.8466, "ln_sigma_rock": 0.8471, "ln_sigma_soil": 0.8471, "ln_bias": -0.4104}, {"name": "pga", "value": 10.6315, "value_rock": 10.6315, "value_soil": 12.7232, "units": "%g", "ln_tau": 0.396, "ln_phi": 0.6778, "ln_sigma": 0.785, "ln_sigma_rock": 0.7847, "ln_sigma_soil": 0.7847, "ln_bias": -0.1955}, {"name": "mmi", "value": 7.5569, "value_rock": 7.5569, "value_soil": 7.7073, "units": "intensity", "tau": 0.4559, "phi": 0.6976, "sigma": 0.8334, "sigma_rock": 0.8323, "sigma_soil": 0.8323, "bias": -0.5255}], "mmi_from_pgm": [{"name": "sa(3.0)", "value": 6.54, "sigma": 0.29}, {"name": "sa(1.0)", "value": 6.13, "sigma": 0.36}, {"name": "pgv", "value": 6.02, "sigma": 0.26}, {"name": "sa(0.3)", "value": 5.03, "sigma": 0.53}, {"name": "pga", "value": 5.85, "sigma": 0.35}], "distance_stddev": 0.0, "distances": {"repi": 40.903, "rhypo": 42.108, "rjb": 24.385, "rjb_var": 0.0, "rrup": 24.541, "rrup_var": 0.0}}, "geometry": {"type": "Point", "coordinates": [13.409, 42.53578]}}, {"type": "Feature", "id": "IV.PIO1", "properties": {"code": "PIO1", "name": "PIO1", "instrumentType": "UNK", "source": "IV", "network": "IV", "commType": "UNK", "location": "", "intensity": 2.6, "intensity_flag": "", "intensity_stddev": 0.26, "pga": "null", "pgv": "null", "distance": 28.875, "elev": null, "vs30": 737.84, "channels": [{"name": "--.HNN", "amplitudes": [{"name": "pga", "value": 0.3802, "units": "%g", "flag": "Outlier", "ln_sigma": 0.0}, {"name": "pgv", "value": 0.0858, "units": "cm/s", "flag": "Outlier", "ln_sigma": 0.0}, {"name": "sa(0.3)", "value": 0.2642, "units": "%g", "flag": "Outlier", "ln_sigma": 0.0}, {"name": "sa(1.0)", "value": 0.2049, "units": "%g", "flag": "Outlier", "ln_sigma": 0.0}, {"name": "sa(3.0)", "value": 0.0238, "units": "%g", "flag": "Outlier", "ln_sigma": 0.0}]}, {"name": "--.HNZ", "amplitudes": [{"name": "pga", "value": 0.5574, "units": "%g", "flag": "Outlier", "ln_sigma": 0.0}, {"name": "pgv", "value": 0.157, "units": "cm/s", "flag": "Outlier", "ln_sigma": 0.0}, {"name": "sa(0.3)", "value": 0.7608, "units": "%g", "flag": "Outlier", "ln_sigma": 0.0}, {"name": "sa(1.0)", "value": 0.1445, "units": "%g", "flag": "Outlier", "ln_sigma": 0.0}, {"name": "sa(3.0)", "value": 0.0297, "units": "%g", "flag": "Outlier", "ln_sigma": 0.0}]}], "station_type": "seismic", "predictions": [{"name": "sa(3.0)", "value": 2.118, "value_rock": 2.118, "value_soil": 2.6873, "units": "%g", "ln_tau": 0.4651, "ln_phi": 0.7226, "ln_sigma": 0.8594, "ln_sigma_rock": 0.8586, "ln_sigma_soil": 0.8586, "ln_bias": -0.3226}, {"name": "sa(1.0)", "value": 11.356, "value_rock": 11.356, "value_soil": 14.663, "units": "%g", "ln_tau": 0.5112, "ln_phi": 0.6667, "ln_sigma": 0.8401, "ln_sigma_rock": 0.8408, "ln_sigma_soil": 0.8408, "ln_bias": -0.7129}, {"name": "pgv", "value": 9.3499, "value_rock": 9.3499, "value_soil": 10.8345, "units": "cm/s", "ln_tau": 0.4467, "ln_phi": 0.6343, "ln_sigma": 0.7758, "ln_sigma_rock": 0.7747, "ln_sigma_soil": 0.7747, "ln_bias": -0.4208}, {"name": "sa(0.3)", "value": 22.5503, "value_rock": 22.5503, "value_soil": 24.8973, "units": "%g", "ln_tau": 0.502, "ln_phi": 0.6817, "ln_sigma": 0.8466, "ln_sigma_rock": 0.8471, "ln_sigma_soil": 0.8471, "ln_bias": -0.4104}, {"name": "pga", "value": 8.7269, "value_rock": 8.7269, "value_soil": 10.4438, "units": "%g", "ln_tau": 0.396, "ln_phi": 0.6778, "ln_sigma": 0.785, "ln_sigma_rock": 0.7847, "ln_sigma_soil": 0.7847, "ln_bias": -0.1955}, {"name": "mmi", "value": 7.3914, "value_rock": 7.3914, "value_soil": 7.5418, "units": "intensity", "tau": 0.4559, "phi": 0.6976, "sigma": 0.8334, "sigma_rock": 0.8323, "sigma_soil": 0.8323, "bias": -0.5255}], "mmi_from_pgm": [{"name": "sa(3.0)", "value": 3.05, "sigma": 0.29}, {"name": "sa(1.0)", "value": 3.74, "sigma": 0.36}, {"name": "pgv", "value": 2.6, "sigma": 0.26}, {"name": "sa(0.3)", "value": 2.09, "sigma": 0.53}, {"name": "pga", "value": 3.15, "sigma": 0.35}], "distance_stddev": 0.0, "distances": {"repi": 40.007, "rhypo": 41.238, "rjb": 28.875, "rjb_var": 0.0, "rrup": 28.875, "rrup_var": 0.0}}, "geometry": {"type": "Point", "coordinates": [12.983759, 43.178198]}}, {"type": "Feature", "id": "IV.LNSS", "properties": {"code": "LNSS", "name": "LNSS", "instrumentType": "UNK", "source": "IV", "network": "IV", "commType": "UNK", "location": "", "intensity": 4.8, "intensity_flag": "", "intensity_stddev": 0.26, "pga": 5.1854, "pgv": "null", "distance": 20.226, "elev": null, "vs30": 509.7, "channels": [{"name": "--.HHN", "amplitudes": [{"name": "pga", "value": 5.1854, "units": "%g", "flag": "0", "ln_sigma": 0.0}, {"name": "pgv", "value": 0.7157, "units": "cm/s", "flag": "Outlier", "ln_sigma": 0.0}, {"name": "sa(0.3)", "value": 5.5072, "units": "%g", "flag": "0", "ln_sigma": 0.0}, {"name": "sa(1.0)", "value": 1.2845, "units": "%g", "flag": "Outlier", "ln_sigma": 0.0}, {"name": "sa(3.0)", "value": 0.455, "units": "%g", "flag": "0", "ln_sigma": 0.0}]}], "station_type": "seismic", "predictions": [{"name": "sa(3.0)", "value": 3.0365, "value_rock": 3.0365, "value_soil": 3.8528, "units": "%g", "ln_tau": 0.4651, "ln_phi": 0.7226, "ln_sigma": 0.8594, "ln_sigma_rock": 0.8586, "ln_sigma_soil": 0.8586, "ln_bias": -0.3226}, {"name": "sa(1.0)", "value": 17.7146, "value_rock": 17.7146, "value_soil": 22.8734, "units": "%g", "ln_tau": 0.5112, "ln_phi": 0.6667, "ln_sigma": 0.8401, "ln_sigma_rock": 0.8408, "ln_sigma_soil": 0.8408, "ln_bias": -0.7129}, {"name": "pgv", "value": 14.8839, "value_rock": 14.8839, "value_soil": 17.2471, "units": "cm/s", "ln_tau": 0.4467, "ln_phi": 0.6343, "ln_sigma": 0.7758, "ln_sigma_rock": 0.7747, "ln_sigma_soil": 0.7747, "ln_bias": -0.4208}, {"name": "sa(0.3)", "value": 37.8128, "value_rock": 37.8128, "value_soil": 41.7483, "units": "%g", "ln_tau": 0.502, "ln_phi": 0.6817, "ln_sigma": 0.8466, "ln_sigma_rock": 0.8471, "ln_sigma_soil": 0.8471, "ln_bias": -0.4104}, {"name": "pga", "value": 15.1983, "value_rock": 15.1983, "value_soil": 18.1885, "units": "%g", "ln_tau": 0.396, "ln_phi": 0.6778, "ln_sigma": 0.785, "ln_sigma_rock": 0.7847, "ln_sigma_soil": 0.7847, "ln_bias": -0.1955}, {"name": "mmi", "value": 7.8659, "value_rock": 7.8659, "value_soil": 8.0163, "units": "intensity", "tau": 0.4559, "phi": 0.6976, "sigma": 0.8334, "sigma_rock": 0.8323, "sigma_soil": 0.8323, "bias": -0.5255}], "mmi_from_pgm": [{"name": "sa(3.0)", "value": 5.61, "sigma": 0.29}, {"name": "sa(1.0)", "value": 5.38, "sigma": 0.36}, {"name": "pgv", "value": 4.77, "sigma": 0.26}, {"name": "sa(0.3)", "value": 4.79, "sigma": 0.53}, {"name": "pga", "value": 6.08, "sigma": 0.35}], "distance_stddev": 0.0, "distances": {"repi": 25.909, "rhypo": 27.772, "rjb": 17.45, "rjb_var": 0.0, "rrup": 20.226, "rrup_var": 0.0}}, "geometry": {"type": "Point", "coordinates": [13.04032, 42.60286]}}, {"type": "Feature", "id": "IV.RM33", "properties": {"code": "RM33", "name": "RM33", "instrumentType": "UNK", "source": "IV", "network": "IV", "commType": "UNK", "location": "", "intensity": 7.7, "intensity_flag": "", "intensity_stddev": 0.26, "pga": 13.2268, "pgv": 13.0832, "distance": 23.861, "elev": null, "vs30": 669.63, "channels": [{"name": "--.HNE", "amplitudes": [{"name": "pga", "value": 13.2268, "units": "%g", "flag": "0", "ln_sigma": 0.0}, {"name": "pgv", "value": 13.0832, "units": "cm/s", "flag": "0", "ln_sigma": 0.0}, {"name": "sa(0.3)", "value": 29.0594, "units": "%g", "flag": "0", "ln_sigma": 0.0}, {"name": "sa(1.0)", "value": 14.6183, "units": "%g", "flag": "0", "ln_sigma": 0.0}, {"name": "sa(3.0)", "value": 2.0909, "units": "%g", "flag": "0", "ln_sigma": 0.0}]}, {"name": "--.HNN", "amplitudes": [{"name": "pga", "value": 12.2699, "units": "%g", "flag": "0", "ln_sigma": 0.0}, {"name": "pgv", "value": 11.3316, "units": "cm/s", "flag": "0", "ln_sigma": 0.0}, {"name": "sa(0.3)", "value": 31.2158, "units": "%g", "flag": "0", "ln_sigma": 0.0}, {"name": "sa(1.0)", "value": 10.3009, "units": "%g", "flag": "0", "ln_sigma": 0.0}, {"name": "sa(3.0)", "value": 4.1493, "units": "%g", "flag": "0", "ln_sigma": 0.0}]}, {"name": "--.HNZ", "amplitudes": [{"name": "pga", "value": 7.4192, "units": "%g", "flag": "0", "ln_sigma": 0.0}, {"name": "pgv", "value": 4.7179, "units": "cm/s", "flag": "0", "ln_sigma": 0.0}, {"name": "sa(0.3)", "value": 8.6747, "units": "%g", "flag": "0", "ln_sigma": 0.0}, {"name": "sa(1.0)", "value": 3.0603, "units": "%g", "flag": "0", "ln_sigma": 0.0}, {"name": "sa(3.0)", "value": 3.1586, "units": "%g", "flag": "0", "ln_sigma": 0.0}]}], "station_type": "seismic", "predictions": [{"name": "sa(3.0)", "value": 2.6101, "value_rock": 2.6101, "value_soil": 3.3117, "units": "%g", "ln_tau": 0.4651, "ln_phi": 0.7226, "ln_sigma": 0.8594, "ln_sigma_rock": 0.8586, "ln_sigma_soil": 0.8586, "ln_bias": -0.3226}, {"name": "sa(1.0)", "value": 14.7258, "value_rock": 14.7258, "value_soil": 19.0143, "units": "%g", "ln_tau": 0.5112, "ln_phi": 0.6667, "ln_sigma": 0.8401, "ln_sigma_rock": 0.8408, "ln_sigma_soil": 0.8408, "ln_bias": -0.7129}, {"name": "pgv", "value": 12.3084, "value_rock": 12.3084, "value_soil": 14.2627, "units": "cm/s", "ln_tau": 0.4467, "ln_phi": 0.6343, "ln_sigma": 0.7758, "ln_sigma_rock": 0.7747, "ln_sigma_soil": 0.7747, "ln_bias": -0.4208}, {"name": "sa(0.3)", "value": 30.7157, "value_rock": 30.7157, "value_soil": 33.9126, "units": "%g", "ln_tau": 0.502, "ln_phi": 0.6817, "ln_sigma": 0.8466, "ln_sigma_rock": 0.8471, "ln_sigma_soil": 0.8471, "ln_bias": -0.4104}, {"name": "pga", "value": 12.1719, "value_rock": 12.1719, "value_soil": 14.5666, "units": "%g", "ln_tau": 0.396, "ln_phi": 0.6778, "ln_sigma": 0.785, "ln_sigma_rock": 0.7847, "ln_sigma_soil": 0.7847, "ln_bias": -0.1955}, {"name": "mmi", "value": 7.672, "value_rock": 7.672, "value_soil": 7.8224, "units": "intensity", "tau": 0.4559, "phi": 0.6976, "sigma": 0.8334, "sigma_rock": 0.8323, "sigma_soil": 0.8323, "bias": -0.5255}], "mmi_from_pgm": [{"name": "sa(3.0)", "value": 7.53, "sigma": 0.29}, {"name": "sa(1.0)", "value": 7.54, "sigma": 0.36}, {"name": "pgv", "value": 7.73, "sigma": 0.26}, {"name": "sa(0.3)", "value": 6.34, "sigma": 0.53}, {"name": "pga", "value": 7.13, "sigma": 0.35}], "distance_stddev": 0.0, "distances": {"repi": 36.752, "rhypo": 38.088, "rjb": 21.581, "rjb_var": 0.0, "rrup": 23.861, "rrup_var": 0.0}}, "geometry": {"type": "Point", "coordinates": [13.21452, 42.50898]}}, {"type": "Feature", "id": "IV.CESX", "properties": {"code": "CESX", "name": "C